{
"type": "FeatureCollection",
"name": "catchment",
"crs": { "type": "name", "properties": { "name": "urn:ogc:def:crs:OGC:1.3:CRS84" } },
"features": [
{ "type": "Feature", "properties": { "Shape_Leng": 9772.2332902899998, "Shape_Area": 4802166.5185000002 }, "geometry": { "type": "MultiPolygon", "coordinates": [ [ [ [ 2.405836595162857, 39.578832252677174 ], [ 2.405831455112379, 39.578817717903384 ], [ 2.405816049495211, 39.578814003448855 ], [ 2.405815179167713, 39.57881379356229 ], [ 2.405815088534783, 39.578813771473975 ], [ 2.405813462468888, 39.578814113662737 ], [ 2.405809964334467, 39.578820562515915 ], [ 2.405811851549201, 39.578822636440755 ], [ 2.40581198651384, 39.578822784900865 ], [ 2.405812323366371, 39.578823153345212 ], [ 2.405812898980606, 39.57882378701413 ], [ 2.405814042166509, 39.578825041696348 ], [ 2.405816537304629, 39.578827783694642 ], [ 2.405836595162857, 39.578832252677174 ] ] ], [ [ [ 2.405836595162857, 39.578832252677174 ], [ 2.405873296983996, 39.578890142717434 ], [ 2.405929153532341, 39.57895150865788 ], [ 2.405929316187562, 39.578951686993634 ], [ 2.405929680708343, 39.578952088016379 ], [ 2.405931263393046, 39.57895382699887 ], [ 2.40595321105581, 39.57897794011182 ], [ 2.405954435352233, 39.578990289671374 ], [ 2.405957099378318, 39.579017168598263 ], [ 2.405960429114872, 39.579050768156129 ], [ 2.405964709709046, 39.579093967713497 ], [ 2.40596954776601, 39.579142792588527 ], [ 2.405974965823793, 39.579197467254403 ], [ 2.405980800927542, 39.579256348288183 ], [ 2.405981576056963, 39.579264164237792 ], [ 2.405977232755063, 39.579291187549828 ], [ 2.405972505732412, 39.579320603855258 ], [ 2.405947169810972, 39.579478273773432 ], [ 2.405946508221114, 39.57948239083148 ], [ 2.405947259097958, 39.579508595912102 ], [ 2.405946874498402, 39.579553645773593 ], [ 2.405923982167701, 39.579622567063453 ], [ 2.405916502952683, 39.579669111514661 ], [ 2.40589854062962, 39.579699161156476 ], [ 2.405887118925018, 39.579733547585896 ], [ 2.405878014924598, 39.579733501039861 ], [ 2.405866536537685, 39.579752704711943 ], [ 2.405865728548522, 39.57975405664078 ], [ 2.405865271400683, 39.579754821085537 ], [ 2.405863462887737, 39.579757845628798 ], [ 2.40582818780938, 39.57981686066222 ], [ 2.40582774771903, 39.579868399501855 ], [ 2.405797473570089, 39.579868244700826 ], [ 2.405770626770151, 39.579913159242871 ], [ 2.405769124192724, 39.579915672659254 ], [ 2.405768761001267, 39.579958201526154 ], [ 2.40574404686729, 39.579973310768978 ], [ 2.405628944974336, 39.580277427390939 ], [ 2.405607471983177, 39.580334159439424 ], [ 2.405590260564785, 39.580407806813952 ], [ 2.405589875721831, 39.580452856665495 ], [ 2.40556205694522, 39.580452714362345 ], [ 2.405530997623482, 39.580529849980564 ], [ 2.405530888193639, 39.580542658554002 ], [ 2.405530503310405, 39.580587708404018 ], [ 2.405507747106728, 39.580587591986529 ], [ 2.405471540040996, 39.580677510383971 ], [ 2.405471515058262, 39.580677572427639 ], [ 2.405471130665941, 39.580722560107354 ], [ 2.405453437054717, 39.580722469580643 ], [ 2.405452079665388, 39.580725839719911 ], [ 2.405437161374392, 39.580762888791121 ], [ 2.405435334044725, 39.580767428773967 ], [ 2.405412032229215, 39.580825295739629 ], [ 2.405411757788436, 39.580857411775497 ], [ 2.405411372823776, 39.580902461622124 ], [ 2.405381022543659, 39.580902306321988 ], [ 2.405362919438756, 39.580947265501933 ], [ 2.405352549097835, 39.58097302442151 ], [ 2.405350844652932, 39.581172462786647 ], [ 2.405350459644531, 39.581217512630303 ], [ 2.405329335679614, 39.581217404530094 ], [ 2.405326918922996, 39.581244449380463 ], [ 2.405325312004216, 39.581262435752301 ], [ 2.40532249608731, 39.581293948600553 ], [ 2.405318089991142, 39.581343259589119 ], [ 2.405317264636701, 39.581352498195173 ], [ 2.405317137197024, 39.581353921180245 ], [ 2.405312339706091, 39.581407608300175 ], [ 2.405307602669825, 39.581460624456767 ], [ 2.405302924824039, 39.581512981357108 ], [ 2.405298303724737, 39.581564692504188 ], [ 2.405293740444164, 39.581615768716041 ], [ 2.405289231381665, 39.581666222588694 ], [ 2.405288315895188, 39.581676468992185 ], [ 2.405287558258631, 39.581765109055546 ], [ 2.405292118874638, 39.58178845751992 ], [ 2.405298523565393, 39.581821251072533 ], [ 2.405305056513055, 39.581854706641593 ], [ 2.405311724519439, 39.581888845886681 ], [ 2.405318528587599, 39.581923687734708 ], [ 2.405318722726526, 39.581924678966992 ], [ 2.405318782938572, 39.581924991033645 ], [ 2.405318863277767, 39.581925400515203 ], [ 2.405319320690012, 39.581927741044922 ], [ 2.40532102643742, 39.58193647721054 ], [ 2.405321362268993, 39.581938192699987 ], [ 2.405344299392518, 39.581938310080844 ], [ 2.40533653566872, 39.582015886506028 ], [ 2.405362258373561, 39.582147592842134 ], [ 2.405366675054376, 39.582170212528432 ], [ 2.405371195528827, 39.582193358950732 ], [ 2.405338440205116, 39.582234339848647 ], [ 2.405329887959919, 39.582245040037151 ], [ 2.405318264863104, 39.582259581845101 ], [ 2.405203366016855, 39.582403333452795 ], [ 2.405165400949214, 39.582450833660189 ], [ 2.405128286842384, 39.582497266879088 ], [ 2.405100204957888, 39.582517178377351 ], [ 2.405091309434224, 39.582523485140371 ], [ 2.405066413288725, 39.582553900098681 ], [ 2.404817412352686, 39.582717690289279 ], [ 2.404616103329518, 39.582860426520149 ], [ 2.4046159510329, 39.582860533864157 ], [ 2.404615824499482, 39.58286062422048 ], [ 2.404615717891847, 39.582860699361262 ], [ 2.404615626506169, 39.582860764668673 ], [ 2.404615546849259, 39.582860820124743 ], [ 2.40461547772587, 39.582860869327554 ], [ 2.404615416807218, 39.582860912265168 ], [ 2.404615362913498, 39.582860950733576 ], [ 2.404615314880296, 39.582860984726835 ], [ 2.40461527152782, 39.582861016040965 ], [ 2.404615231699354, 39.582861043769014 ], [ 2.404615196551612, 39.582861068817948 ], [ 2.404615163748079, 39.58286109207679 ], [ 2.404608293743574, 39.582865963918699 ], [ 2.404607532237247, 39.582866503341613 ], [ 2.404607170974536, 39.582867080856737 ], [ 2.404603288022716, 39.582873284416898 ], [ 2.404551680953851, 39.582955732380924 ], [ 2.404547094357165, 39.582963060430458 ], [ 2.404519155673527, 39.58300769514473 ], [ 2.404482586806916, 39.583066118327778 ], [ 2.404479151458363, 39.583068592987509 ], [ 2.404473154831395, 39.583072912456913 ], [ 2.404463179069241, 39.583089908030622 ], [ 2.404306446366834, 39.583193002219097 ], [ 2.404153528022261, 39.58330315824891 ], [ 2.404150491024172, 39.583305345708865 ], [ 2.404140928924908, 39.583312233752139 ], [ 2.404075925106855, 39.583359059725154 ], [ 2.404012274501153, 39.583404910472602 ], [ 2.404010903627249, 39.583405898185148 ], [ 2.403948533588947, 39.583450826497028 ], [ 2.403946395257545, 39.583452367112308 ], [ 2.403942739596437, 39.583455000109183 ], [ 2.403882901484323, 39.583498105061707 ], [ 2.403876676311459, 39.583502588216952 ], [ 2.403825369195098, 39.583539547688382 ], [ 2.403766193338045, 39.583544626857872 ], [ 2.403715249258775, 39.583548999477905 ], [ 2.403690000374486, 39.58355116665139 ], [ 2.403626065346258, 39.583556654724966 ], [ 2.403554823784507, 39.583562769323549 ], [ 2.403543636749857, 39.583563730072036 ], [ 2.403467619710789, 39.583570254403959 ], [ 2.403463781156689, 39.583570584300162 ], [ 2.403461419065045, 39.583570786620513 ], [ 2.403453722146341, 39.583571448112757 ], [ 2.403371438018782, 39.583578510563648 ], [ 2.403225384420998, 39.58359496494662 ], [ 2.403204863209626, 39.583613150581598 ], [ 2.403151605812607, 39.583711119685603 ], [ 2.403148696583575, 39.583717003824304 ], [ 2.403148563193917, 39.583717350037951 ], [ 2.403148197588923, 39.58371829604976 ], [ 2.403147597354734, 39.583719851758708 ], [ 2.403146423129365, 39.583722890327465 ], [ 2.403143115964391, 39.583731453003615 ], [ 2.403111940270919, 39.583812163535434 ], [ 2.403102467715891, 39.583879579933061 ], [ 2.4030873653083, 39.584032461287904 ], [ 2.403087035084301, 39.584035797929097 ], [ 2.403081581005386, 39.584091004305364 ], [ 2.403076588479656, 39.584141545686599 ], [ 2.403072000247993, 39.584187988530402 ], [ 2.403070329682256, 39.584204901399914 ], [ 2.403069420516069, 39.584214097205454 ], [ 2.403067673435636, 39.58423178457253 ], [ 2.403053853886219, 39.584246669871817 ], [ 2.403053660068591, 39.584269258743035 ], [ 2.403032982322723, 39.584269152515489 ], [ 2.40299508722242, 39.5843099702711 ], [ 2.402995052561995, 39.584314009436191 ], [ 2.402991355530528, 39.584313990441863 ], [ 2.402984063751143, 39.584321845150306 ], [ 2.402978328120052, 39.584328022916729 ], [ 2.402976204290103, 39.584330310546903 ], [ 2.402975097123532, 39.584331503235937 ], [ 2.4029497286845, 39.584358828352592 ], [ 2.402936320443595, 39.584373271540194 ], [ 2.402936058364744, 39.584403809897942 ], [ 2.402892344026449, 39.584420640079848 ], [ 2.402870324054375, 39.584444359320415 ], [ 2.402862955856445, 39.584452295622555 ], [ 2.402856210584919, 39.584459561150645 ], [ 2.402833766396599, 39.584491186594327 ], [ 2.402818678661227, 39.584512444680094 ], [ 2.402818456204222, 39.584538360927318 ], [ 2.402800351754251, 39.58453826788292 ], [ 2.402768494165773, 39.584583155933984 ], [ 2.402766163806861, 39.584586439945198 ], [ 2.402759742075828, 39.584595487576877 ], [ 2.402759461586254, 39.584628161292805 ], [ 2.402736636535939, 39.58462804397567 ], [ 2.402719509517669, 39.584652176682283 ], [ 2.40270477886473, 39.584672932007948 ], [ 2.402700805348852, 39.584678530441515 ], [ 2.4027004668149, 39.584717961625834 ], [ 2.402672921152154, 39.584717820030839 ], [ 2.402641868480302, 39.584761573274051 ], [ 2.40264147189016, 39.584807761926356 ], [ 2.40259978564798, 39.584835181481559 ], [ 2.402574579736811, 39.584878120494039 ], [ 2.402440578441581, 39.585149122536492 ], [ 2.402411364473372, 39.58521425773327 ], [ 2.402392794035579, 39.585276525602872 ], [ 2.402377815052875, 39.585361000841196 ], [ 2.402369860518649, 39.585405860333395 ], [ 2.402367321175886, 39.585420181847553 ], [ 2.402361082539699, 39.585437045078464 ], [ 2.402345550879941, 39.585479030939659 ], [ 2.402344562579383, 39.585481701030979 ], [ 2.402344172895051, 39.585527061659974 ], [ 2.40232781251976, 39.585526977511712 ], [ 2.402311178059254, 39.585571943727011 ], [ 2.402298809208419, 39.585605377902553 ], [ 2.402293600581644, 39.585619456821391 ], [ 2.402284953699929, 39.585642830255999 ], [ 2.402284789759127, 39.585661911542452 ], [ 2.402284402704015, 39.585706961326053 ], [ 2.402261272217808, 39.585706842343555 ], [ 2.402244637669935, 39.5857518085473 ], [ 2.40222800193578, 39.58579677474215 ], [ 2.402225344547763, 39.585803958542918 ], [ 2.402224245101207, 39.58593191073485 ], [ 2.402223470904286, 39.586022010296546 ], [ 2.402223083804521, 39.586067060076843 ], [ 2.402221922500011, 39.586202209415646 ], [ 2.40220004246956, 39.586202096853441 ], [ 2.402180819183976, 39.586247049725763 ], [ 2.402162953025468, 39.58628882711983 ], [ 2.402162538535063, 39.586337059213854 ], [ 2.402142371372853, 39.586336955453291 ], [ 2.402115530464563, 39.586399718630645 ], [ 2.402103533675639, 39.586427771909143 ], [ 2.402103154336971, 39.586471908976868 ], [ 2.402084698885154, 39.586471814013706 ], [ 2.402066940743538, 39.586513339657039 ], [ 2.402065475448552, 39.586516766863738 ], [ 2.402062046929998, 39.586524784654593 ], [ 2.402044317779972, 39.586543018679414 ], [ 2.402044157129027, 39.58656170893002 ], [ 2.402002002742777, 39.586586540779969 ], [ 2.401973598435007, 39.586615755736211 ], [ 2.401965737207694, 39.586623839913194 ], [ 2.40178972419903, 39.586804870054166 ], [ 2.40178937759946, 39.586805226881843 ], [ 2.401789088569823, 39.586805524537596 ], [ 2.401788843012628, 39.586805777365377 ], [ 2.401788653853161, 39.586805971916235 ], [ 2.401788301384788, 39.586806334119906 ], [ 2.401778476836109, 39.586816439109889 ], [ 2.401776056538031, 39.586818927923552 ], [ 2.401756108953399, 39.586859762863732 ], [ 2.401663254151239, 39.587049854629946 ], [ 2.401651164200502, 39.58710278496163 ], [ 2.401651418438604, 39.587115061975069 ], [ 2.401651449971062, 39.587116540736297 ], [ 2.401652316039232, 39.587158279346603 ], [ 2.401652376323768, 39.587161153959471 ], [ 2.40165298401352, 39.587190420010245 ], [ 2.401653237521574, 39.587202646561771 ], [ 2.401654102432498, 39.58724424910919 ], [ 2.401654968719873, 39.587285962490711 ], [ 2.401655837540423, 39.587327787613376 ], [ 2.401656707737413, 39.587369723570156 ], [ 2.401657581624318, 39.587411772175003 ], [ 2.401658456872187, 39.587453933415972 ], [ 2.401659317290294, 39.587495381861437 ], [ 2.401659224443137, 39.587496428386231 ], [ 2.401659057004359, 39.587498294468958 ], [ 2.401656572806745, 39.587526080414733 ], [ 2.401654132484727, 39.587553368313777 ], [ 2.401649271053138, 39.587607740576324 ], [ 2.401644471429175, 39.587661424765535 ], [ 2.401639731183433, 39.587714432582423 ], [ 2.401634782111215, 39.587769784717743 ], [ 2.401632045374117, 39.587800392304295 ], [ 2.401631788381802, 39.587819167652285 ], [ 2.401631237900856, 39.587859336568172 ], [ 2.401630603772822, 39.587905574425733 ], [ 2.401630131073121, 39.587940085241009 ], [ 2.401629660738506, 39.587974456407835 ], [ 2.401629191588987, 39.58800868972218 ], [ 2.401628724789071, 39.588042785190055 ], [ 2.401628260323255, 39.588076744613431 ], [ 2.401627797027069, 39.588110567986348 ], [ 2.401627303492442, 39.588146552786526 ], [ 2.401627075197698, 39.588163209947659 ], [ 2.401622730429859, 39.588171725782239 ], [ 2.401622259672481, 39.588226452228973 ], [ 2.401594880311724, 39.588226311231566 ], [ 2.401571954161687, 39.588271244915937 ], [ 2.401563505057589, 39.588287804775227 ], [ 2.40156326033014, 39.58831625189498 ], [ 2.401549027981723, 39.588316178595193 ], [ 2.401548098140416, 39.58831800110535 ], [ 2.401545937593255, 39.588322235655099 ], [ 2.401544671340423, 39.588324718693372 ], [ 2.401543838630056, 39.588326350684305 ], [ 2.40154324992757, 39.588327504581308 ], [ 2.401542811657287, 39.588328363713586 ], [ 2.401504279493341, 39.588403882833219 ], [ 2.401504260834382, 39.58840605152848 ], [ 2.401503873236112, 39.588451101284342 ], [ 2.401480250426733, 39.588450979608417 ], [ 2.401457324127044, 39.588495913267309 ], [ 2.401445053721608, 39.588519961758251 ], [ 2.401444873547491, 39.588540900884155 ], [ 2.401426836803089, 39.588553660335663 ], [ 2.401424074937708, 39.588558618019547 ], [ 2.401423793431866, 39.588559122951082 ], [ 2.401423565149894, 39.588559532647089 ], [ 2.40141362121065, 39.588577386789645 ], [ 2.401405609994983, 39.588591770189517 ], [ 2.401277787311655, 39.588821262104616 ], [ 2.401266908874937, 39.588840792749771 ], [ 2.401226488143135, 39.588879947980288 ], [ 2.401198385013533, 39.588907172096214 ], [ 2.400964492120678, 39.589133739156743 ], [ 2.400953895973683, 39.589144004082378 ], [ 2.400953717472171, 39.589144177061868 ], [ 2.400953556593345, 39.589144332111516 ], [ 2.400953412141656, 39.589144472829275 ], [ 2.400953279451367, 39.589144600092162 ], [ 2.400716002793116, 39.589374445180106 ], [ 2.400715981653519, 39.589374465794869 ], [ 2.400715956997118, 39.589374489094652 ], [ 2.400715927636126, 39.589374517776321 ], [ 2.400546983222111, 39.589538168981669 ], [ 2.400546741307243, 39.589538402903742 ], [ 2.400459051626541, 39.58962334515909 ], [ 2.400426920642426, 39.589678289360933 ], [ 2.400425450255914, 39.589680803770207 ], [ 2.400408024266582, 39.589710603878714 ], [ 2.400385959674131, 39.589796890247484 ], [ 2.400357650422017, 39.589796744158498 ], [ 2.400349939146743, 39.589809929752278 ], [ 2.400327181784393, 39.589860660403502 ], [ 2.400326957385964, 39.589886689239364 ], [ 2.400315532358042, 39.589886630275842 ], [ 2.400303434107004, 39.589913598880109 ], [ 2.40026779957625, 39.589994508092126 ], [ 2.400267566523821, 39.590021537932152 ], [ 2.400255921380675, 39.590021477826653 ], [ 2.400244043175772, 39.590048447559752 ], [ 2.400208408505093, 39.59012935675063 ], [ 2.400208175428471, 39.590156386589747 ], [ 2.40019297983893, 39.59016438953136 ], [ 2.400184652011331, 39.590183296204195 ], [ 2.400125260613679, 39.590318144813374 ], [ 2.400115819390642, 39.590352988640738 ], [ 2.400115855061277, 39.590353308692201 ], [ 2.400115900559876, 39.590353704481338 ], [ 2.400115953642866, 39.590354166085177 ], [ 2.400116016468343, 39.590354713337568 ], [ 2.400116148585789, 39.590355868245119 ], [ 2.400116907715844, 39.590362504680712 ], [ 2.400117228263169, 39.590365306751465 ], [ 2.400120098029154, 39.590390392857685 ], [ 2.400123046800607, 39.590416175871454 ], [ 2.400123145397894, 39.590417031462373 ], [ 2.400124319257187, 39.590427297604627 ], [ 2.40012725510633, 39.590452958911712 ], [ 2.400146841580895, 39.590516483858678 ], [ 2.400146064567181, 39.590606583314816 ], [ 2.400145869373017, 39.590629217198995 ], [ 2.400147563998644, 39.590651074235858 ], [ 2.40016614041231, 39.590890747135958 ], [ 2.400166290234496, 39.590892685133817 ], [ 2.400168014168732, 39.590914926161496 ], [ 2.400170067208744, 39.590941408255858 ], [ 2.400170342765511, 39.590944971468197 ], [ 2.400163684456952, 39.590969865119831 ], [ 2.400140928514729, 39.591054939565481 ], [ 2.400133343571007, 39.591083298315333 ], [ 2.400118172515576, 39.591140014005013 ], [ 2.400109032768543, 39.591174186310234 ], [ 2.400097258746431, 39.591275058514604 ], [ 2.400063302747241, 39.591345148576686 ], [ 2.400058904327095, 39.591361594075238 ], [ 2.399956955741955, 39.591579263070642 ], [ 2.399940836689012, 39.591613677737371 ], [ 2.399886251727601, 39.591730221264349 ], [ 2.399883673071604, 39.591737808172191 ], [ 2.399883434091614, 39.591738510645875 ], [ 2.399883224963727, 39.591739127675424 ], [ 2.39982591112034, 39.591907771108261 ], [ 2.399796073480984, 39.59199556785957 ], [ 2.399784409679217, 39.592029885677661 ], [ 2.399783878661176, 39.592091419982218 ], [ 2.399758396943787, 39.592106428432373 ], [ 2.399718765358428, 39.592223040104471 ], [ 2.399712362797621, 39.592241881896257 ], [ 2.399694021372694, 39.592285340438579 ], [ 2.399690281046402, 39.592294201709521 ], [ 2.399664701887465, 39.592406166340766 ], [ 2.399643073788565, 39.592406054594107 ], [ 2.399605708254176, 39.592494593589194 ], [ 2.399605696416555, 39.592495964902319 ], [ 2.399605307532353, 39.592541014610703 ], [ 2.399586158732236, 39.592540915664252 ], [ 2.39954821407252, 39.592630823020173 ], [ 2.399546261856013, 39.592635447852423 ], [ 2.399545912943996, 39.592675862845397 ], [ 2.399529242287653, 39.592675776695692 ], [ 2.399529172155189, 39.592675941222559 ], [ 2.399495261406812, 39.59275628960836 ], [ 2.399486815206056, 39.592776302980973 ], [ 2.399486518122394, 39.592810711044891 ], [ 2.399486129156657, 39.592855760749821 ], [ 2.399453749743164, 39.592875548608824 ], [ 2.399441064172875, 39.592917293737408 ], [ 2.399387170414013, 39.593094643265275 ], [ 2.399366560637616, 39.593215556442722 ], [ 2.399346746036611, 39.593227665731732 ], [ 2.399271131495299, 39.593476486472881 ], [ 2.399246601727967, 39.593620401677967 ], [ 2.399230392017586, 39.593620317868073 ], [ 2.399223076752655, 39.593647311070008 ], [ 2.399186971994613, 39.593782279509171 ], [ 2.39918681632545, 39.593800299387183 ], [ 2.399186427151933, 39.593845349081988 ], [ 2.399170123058476, 39.593845264775524 ], [ 2.399162902076299, 39.593872258460038 ], [ 2.39912647814544, 39.594087412754497 ], [ 2.399129423090385, 39.594115364545942 ], [ 2.399132972877486, 39.594149067161482 ], [ 2.399134697224746, 39.594165433451408 ], [ 2.39913649587293, 39.594182501130014 ], [ 2.399138371911106, 39.594200317067035 ], [ 2.399140333071131, 39.594218929958281 ], [ 2.399142383528865, 39.594238395689466 ], [ 2.399145125068409, 39.594264414610919 ], [ 2.399146724549685, 39.594279597196909 ], [ 2.399148455337885, 39.594296027493023 ], [ 2.399150334673187, 39.594313866873456 ], [ 2.399152381899295, 39.594333302853329 ], [ 2.399154621848173, 39.59435456172055 ], [ 2.399157081322969, 39.594377911220803 ], [ 2.399158423544061, 39.59439065337687 ], [ 2.399163120840438, 39.594435239206817 ], [ 2.399180589444281, 39.594521094461406 ], [ 2.399161130319708, 39.59452099383897 ], [ 2.399157172760935, 39.594535430465235 ], [ 2.39914879708286, 39.594565981764084 ], [ 2.399134494071626, 39.594618154257894 ], [ 2.399121096584402, 39.594667020132285 ], [ 2.399120803067607, 39.594700992101679 ], [ 2.399120413838894, 39.594746041788916 ], [ 2.399099461643155, 39.594745933434709 ], [ 2.399099445989648, 39.594745992822006 ], [ 2.399087128324761, 39.594790921350935 ], [ 2.399060969313424, 39.594886336210259 ], [ 2.399059848563716, 39.59501603875826 ], [ 2.399034686266279, 39.595015908617725 ], [ 2.399022119385977, 39.595121068165483 ], [ 2.399007783569004, 39.595241027953776 ], [ 2.399007567646267, 39.595242833409948 ], [ 2.398999039428771, 39.595314198038004 ], [ 2.398998137467788, 39.595418568238472 ], [ 2.399001395541629, 39.595442765236236 ], [ 2.399004683535863, 39.595467138991175 ], [ 2.399007994447339, 39.595491691269196 ], [ 2.399011330581952, 39.595516424785266 ], [ 2.399014690775149, 39.595541339533433 ], [ 2.399018076152655, 39.595566440024612 ], [ 2.399021486714521, 39.595591726258831 ], [ 2.399022807830911, 39.595601519220828 ], [ 2.399024923594271, 39.595617201846089 ], [ 2.39902838445495, 39.595642867675316 ], [ 2.399028889089636, 39.595646602367644 ], [ 2.399054398668484, 39.595646734306108 ], [ 2.399054009383696, 39.595691783985437 ], [ 2.399052863775777, 39.595824357981712 ], [ 2.399071626460675, 39.595963458409784 ], [ 2.3990788788729, 39.596017232673212 ], [ 2.399081043190155, 39.59604158619576 ], [ 2.399084871860319, 39.596084670005979 ], [ 2.39908492923749, 39.596085308234628 ], [ 2.399086004435171, 39.596097414679086 ], [ 2.399108736570955, 39.59609753224175 ], [ 2.399108347315138, 39.596142581918016 ], [ 2.399106790283132, 39.596322780619623 ], [ 2.399106723112456, 39.596330554391486 ], [ 2.399113667217489, 39.596408694611682 ], [ 2.399122053881259, 39.596503066303931 ], [ 2.399126059917006, 39.596548138707114 ], [ 2.39913442324012, 39.596642249876837 ], [ 2.399135048489626, 39.596649280272125 ], [ 2.399135841635602, 39.596678395871685 ], [ 2.39913596195644, 39.596682802548699 ], [ 2.399136944646053, 39.596718827353655 ], [ 2.399137949305587, 39.596755679420895 ], [ 2.399137951857488, 39.596755788459149 ], [ 2.399137980056127, 39.596756838309247 ], [ 2.399140498023736, 39.596849181152947 ], [ 2.399151841064643, 39.596944997163831 ], [ 2.399144352106764, 39.596990564255186 ], [ 2.39914674779431, 39.597078458960738 ], [ 2.399134935008218, 39.597109256473175 ], [ 2.399117275379909, 39.597155298069438 ], [ 2.39909861563558, 39.597268823710174 ], [ 2.399073780950059, 39.597268695270486 ], [ 2.399039612543203, 39.597357775839676 ], [ 2.399039605231819, 39.597358621872409 ], [ 2.399039215913803, 39.597403671538295 ], [ 2.399022043331529, 39.597403582717092 ], [ 2.399019271818777, 39.597410808186716 ], [ 2.399018888138897, 39.597411809052545 ], [ 2.399018579552018, 39.597412611178399 ], [ 2.399004797025186, 39.597448545191142 ], [ 2.398980035642599, 39.597513101409625 ], [ 2.398979426599486, 39.597583568995233 ], [ 2.398951358759646, 39.597583423804878 ], [ 2.398932668206327, 39.597628378795584 ], [ 2.398920552768675, 39.597657517716556 ], [ 2.398920415770325, 39.597673367088881 ], [ 2.398920026370749, 39.597718416751356 ], [ 2.39889528586155, 39.597718288760326 ], [ 2.398861081553318, 39.597800556368924 ], [ 2.398861015348619, 39.597808214811309 ], [ 2.398860625908699, 39.597853264472228 ], [ 2.398839212742976, 39.59785315368395 ], [ 2.398820522042674, 39.597898108653439 ], [ 2.398801610089947, 39.597943594985473 ], [ 2.398801344783869, 39.597974281912485 ], [ 2.39880189546222, 39.597988318358489 ], [ 2.398802326748459, 39.59799932491206 ], [ 2.398803621834801, 39.598032337370761 ], [ 2.398803638073974, 39.598032749227102 ], [ 2.398804452109097, 39.598053506042248 ], [ 2.398805422794964, 39.598078237225501 ], [ 2.398805705089756, 39.598085461370509 ], [ 2.398806973434163, 39.598117795212126 ], [ 2.398808257087806, 39.59815051387406 ], [ 2.398809555988415, 39.598183624564243 ], [ 2.398810723990621, 39.59821341967487 ], [ 2.39881087007372, 39.598217134490632 ], [ 2.398812200453861, 39.59825104996618 ], [ 2.398812893207088, 39.598268726420656 ], [ 2.398811595649876, 39.59829379276453 ], [ 2.398810812392648, 39.598308947698449 ], [ 2.398808152942259, 39.598360324379975 ], [ 2.398805550492421, 39.5984106309282 ], [ 2.398795971880388, 39.598595734721272 ], [ 2.398794603915011, 39.598753956313452 ], [ 2.398794214419001, 39.598799005966477 ], [ 2.398772598311318, 39.598798894115134 ], [ 2.398768267147667, 39.598833197470213 ], [ 2.398768073280385, 39.598834739937196 ], [ 2.398767255556164, 39.598841216838757 ], [ 2.39876691424822, 39.598843916370626 ], [ 2.3987574264972, 39.598919080132987 ], [ 2.398750405732216, 39.598974696126895 ], [ 2.398749864341922, 39.598978983145066 ], [ 2.398745139275297, 39.599016408342401 ], [ 2.39874477041085, 39.599019331187797 ], [ 2.39873386544699, 39.599043409835133 ], [ 2.398733644149787, 39.599069002541519 ], [ 2.39872230147263, 39.599068943843946 ], [ 2.398711140009004, 39.59909358971354 ], [ 2.39871019603985, 39.59909567342369 ], [ 2.39871015921063, 39.599095757029176 ], [ 2.398710146142199, 39.599095786695656 ], [ 2.398701947216825, 39.599113890175175 ], [ 2.398681591769718, 39.599158836496237 ], [ 2.398674495920387, 39.599174503882097 ], [ 2.398674242140522, 39.599203850124347 ], [ 2.398661236295971, 39.599203782813198 ], [ 2.398653926706386, 39.599219922133919 ], [ 2.398640880795585, 39.599248729126053 ], [ 2.398615126174962, 39.599305596993069 ], [ 2.398614839897924, 39.599338697671932 ], [ 2.398600169714897, 39.59933862173942 ], [ 2.39859461506564, 39.599350886686167 ], [ 2.398594372820702, 39.599351423349177 ], [ 2.398594163841107, 39.599351884497537 ], [ 2.398579814134605, 39.599383568039912 ], [ 2.39855627152878, 39.599435552929542 ], [ 2.398555754652076, 39.599436869366677 ], [ 2.398555437421992, 39.599473545184267 ], [ 2.398541390310318, 39.599473472469541 ], [ 2.398533509629915, 39.599493553549109 ], [ 2.398533390512872, 39.599493859283811 ], [ 2.398533286918449, 39.599494120948208 ], [ 2.398533197588454, 39.599494349348213 ], [ 2.3985331189977, 39.59949454806975 ], [ 2.39853304991917, 39.599494724314653 ], [ 2.398532989156997, 39.599494881680926 ], [ 2.398532934366276, 39.599495021958504 ], [ 2.398523746010243, 39.599518432794078 ], [ 2.398496205838057, 39.599588610461652 ], [ 2.398495645011475, 39.599653442305303 ], [ 2.398470814135762, 39.599653313754459 ], [ 2.398436656760315, 39.599740351520175 ], [ 2.398436242028517, 39.599788289745618 ], [ 2.398419169021512, 39.599788201349455 ], [ 2.398417752792081, 39.599792230645498 ], [ 2.398403363587096, 39.59983317117382 ], [ 2.398397705812682, 39.59984926947223 ], [ 2.398390560144873, 39.599869602130482 ], [ 2.398376967377991, 39.599908277977214 ], [ 2.398376838812218, 39.599923137150711 ], [ 2.398376449029396, 39.599968186791187 ], [ 2.398355949488487, 39.599968080643038 ], [ 2.398320939881718, 39.600067695082288 ], [ 2.39831726074529, 39.600078164055851 ], [ 2.398316655715356, 39.600148083798061 ], [ 2.39829273078756, 39.600147959900205 ], [ 2.39828804974907, 39.600161280860178 ], [ 2.398272321190162, 39.600192905859828 ], [ 2.398257777972097, 39.600222148357204 ], [ 2.398257251951663, 39.600282931129577 ], [ 2.398227625841185, 39.60028277769149 ], [ 2.398215062155547, 39.600308038858827 ], [ 2.398198509684847, 39.600341321986242 ], [ 2.39819823785937, 39.600372728790347 ], [ 2.398182929210736, 39.600372649497672 ], [ 2.398160581434048, 39.600417585396478 ], [ 2.398139241192219, 39.600460495581068 ], [ 2.398139223613554, 39.600462526418582 ], [ 2.398138833669329, 39.600507576052898 ], [ 2.398115885793072, 39.600507457179503 ], [ 2.39807997250201, 39.600579668240677 ], [ 2.398079429245933, 39.600642423280227 ], [ 2.398048840947927, 39.600642264811498 ], [ 2.398044714629559, 39.600650563572934 ], [ 2.398026492996038, 39.600687200681115 ], [ 2.39802070359862, 39.600698841767063 ], [ 2.398020414614113, 39.60073222084106 ], [ 2.398004145014947, 39.600732136545879 ], [ 2.398001091478437, 39.600738275681529 ], [ 2.398001033386568, 39.600738393415845 ], [ 2.398000976482792, 39.600738508453261 ], [ 2.398000920774921, 39.600738619892724 ], [ 2.398000867427636, 39.600738727740271 ], [ 2.398000815268444, 39.600738832890897 ], [ 2.398000764297346, 39.600738935344559 ], [ 2.398000714514339, 39.600739035101292 ], [ 2.398000665919439, 39.600739132161067 ], [ 2.398000618504819, 39.600739227424924 ], [ 2.398000572278305, 39.600739319991796 ], [ 2.398000528404586, 39.600739409867778 ], [ 2.398000484554258, 39.600739497040799 ], [ 2.398000441876422, 39.600739583318855 ], [ 2.39800007085279, 39.600740329253881 ], [ 2.397996886726435, 39.60075912993009 ], [ 2.397996496685889, 39.600804179560924 ], [ 2.397996340669426, 39.600822199413166 ], [ 2.397996106644467, 39.600849229191404 ], [ 2.397995950627653, 39.600867249043517 ], [ 2.397995716602169, 39.600894278821514 ], [ 2.398009536939468, 39.600912371088285 ], [ 2.398018854509134, 39.600912419363894 ], [ 2.398018750496437, 39.600924433199211 ], [ 2.398044087814005, 39.600957601747972 ], [ 2.398076699329363, 39.600957770699779 ], [ 2.398076335334644, 39.600999817321402 ], [ 2.398078638733254, 39.60100283239737 ], [ 2.398113189697212, 39.601048063036501 ], [ 2.398134154270306, 39.601048171637146 ], [ 2.398133920297044, 39.601075201415021 ], [ 2.398147740705879, 39.601093293665315 ], [ 2.398168471332538, 39.601120432037682 ], [ 2.398190003238171, 39.601138564226737 ], [ 2.398191609359524, 39.601138572545842 ], [ 2.398191597802318, 39.601139907816865 ], [ 2.398243832469017, 39.601183894679025 ], [ 2.398249454479805, 39.601183923796228 ], [ 2.398249414049, 39.601188595442849 ], [ 2.398288472435269, 39.601221487200881 ], [ 2.398297324569369, 39.601225658873837 ], [ 2.398304973766487, 39.601229262973021 ], [ 2.398307299675537, 39.601229275018049 ], [ 2.398365534754933, 39.601229576581048 ], [ 2.398365291530304, 39.601257685748379 ], [ 2.398401643224473, 39.601274815198316 ], [ 2.398423380064718, 39.6012749277456 ], [ 2.398539460607429, 39.60132058035795 ], [ 2.398539295391686, 39.60133967959954 ], [ 2.398594980192974, 39.601365919397367 ], [ 2.398597306106719, 39.601365931436625 ], [ 2.398674846111922, 39.601396249765628 ], [ 2.398771622153441, 39.601411885237162 ], [ 2.398771301181838, 39.601449004332089 ], [ 2.39877459682625, 39.601450557647027 ], [ 2.3988076075232, 39.601457123090682 ], [ 2.398829467880838, 39.601457236201234 ], [ 2.398945938433519, 39.601457838777527 ], [ 2.398969493685077, 39.601484611382517 ], [ 2.399294571693741, 39.601549745077861 ], [ 2.399294329168861, 39.60157781640671 ], [ 2.399327948530271, 39.601594969283646 ], [ 2.399352417879102, 39.601595095783971 ], [ 2.399352311588022, 39.601607399740445 ], [ 2.399370573742573, 39.601616717121111 ], [ 2.399410294056733, 39.601636983045474 ], [ 2.39941715222719, 39.601640482066799 ], [ 2.399468499575469, 39.601640747474285 ], [ 2.399468276574992, 39.601666566321811 ], [ 2.399506357206093, 39.601685994788042 ], [ 2.399526345950337, 39.601686098094532 ], [ 2.399526259142802, 39.601696149569413 ], [ 2.399555978708527, 39.601711312567467 ], [ 2.399562774271685, 39.601714779720474 ], [ 2.399564429092295, 39.601715624430881 ], [ 2.399584241760161, 39.601725732788282 ], [ 2.399585798016631, 39.601726526531195 ], [ 2.399693198682852, 39.601771552870929 ], [ 2.399711789725159, 39.601779347349428 ], [ 2.399805228981115, 39.601818519524016 ], [ 2.39985489800707, 39.601838085226952 ], [ 2.399856005982116, 39.601839806516701 ], [ 2.399862156971066, 39.601842385508412 ], [ 2.399883158939378, 39.60186814819675 ], [ 2.399898914463403, 39.601887474736507 ], [ 2.399901979131841, 39.601891233456065 ], [ 2.399920040933699, 39.601913390335625 ], [ 2.399932050293415, 39.601913452360542 ], [ 2.400030958058148, 39.602049448759836 ], [ 2.400147066803536, 39.602191874448003 ], [ 2.40015491005739, 39.602201495623696 ], [ 2.400168375562957, 39.602219768709361 ], [ 2.400175969489192, 39.602230073381413 ], [ 2.400194246270822, 39.602254874056769 ], [ 2.40019508095298, 39.602256007359919 ], [ 2.400195196087986, 39.602256162931965 ], [ 2.400209297140301, 39.602275297076986 ], [ 2.400220119713978, 39.602275352945718 ], [ 2.400219994958941, 39.60228981478037 ], [ 2.400242623669795, 39.602320520756976 ], [ 2.400277967106609, 39.602320703194515 ], [ 2.400277559753764, 39.602367928729556 ], [ 2.400309278022817, 39.602410968094183 ], [ 2.400335426027346, 39.602411103052383 ], [ 2.400335124684962, 39.602446041749154 ], [ 2.400342604681626, 39.602456191745411 ], [ 2.400355728356735, 39.602473999913656 ], [ 2.40037593254826, 39.602501415393043 ], [ 2.400392885096376, 39.60250150288158 ], [ 2.400392689736991, 39.602524155641142 ], [ 2.40039742850934, 39.602530584637933 ], [ 2.400409259293279, 39.602546639025121 ], [ 2.400450732789086, 39.602546853044842 ], [ 2.400450344313702, 39.602591902682072 ], [ 2.400450254925393, 39.602602268603533 ], [ 2.400475914077353, 39.60263708626649 ], [ 2.400508192118725, 39.602637252816876 ], [ 2.400507820234629, 39.602680382438351 ], [ 2.400509240951687, 39.602682309869799 ], [ 2.400542567869126, 39.602727533463536 ], [ 2.400565651596659, 39.602727652560233 ], [ 2.400565332538852, 39.602764659034854 ], [ 2.400569162702309, 39.602772722315422 ], [ 2.400590612963193, 39.602817884620094 ], [ 2.400623111222892, 39.602818052274898 ], [ 2.400622722855459, 39.60286310191141 ], [ 2.400622533285231, 39.602885091539861 ], [ 2.400654963911125, 39.602953371509564 ], [ 2.400680182665974, 39.602953501597149 ], [ 2.400679734219732, 39.603005524916696 ], [ 2.400696346550756, 39.603040501298409 ], [ 2.400697864680816, 39.603043696082032 ], [ 2.400708436596584, 39.603065953862149 ], [ 2.400708554428337, 39.603066202253935 ], [ 2.400708655099748, 39.603066414515929 ], [ 2.400719315106983, 39.603088858362113 ], [ 2.400737254328453, 39.603088950889898 ], [ 2.400736935357891, 39.603125957363396 ], [ 2.400740765560696, 39.603134020638109 ], [ 2.400742144105612, 39.603136923667549 ], [ 2.400752122307823, 39.603157930450841 ], [ 2.400810188134464, 39.603249015276127 ], [ 2.400815085778809, 39.603254995459295 ], [ 2.400852174762956, 39.603269750117484 ], [ 2.400851914357092, 39.603299967610603 ], [ 2.400864112950016, 39.603314863316477 ], [ 2.400885976595935, 39.603341561930236 ], [ 2.400886033078005, 39.603341630699973 ], [ 2.400901162899694, 39.603360106002199 ], [ 2.400909635202661, 39.603360149688207 ], [ 2.400909547347746, 39.603370345321551 ], [ 2.400938212897371, 39.603405348676098 ], [ 2.400967483943064, 39.603405499595468 ], [ 2.400967234718275, 39.603434425065018 ], [ 2.400983597817904, 39.603450634310327 ], [ 2.401025332758926, 39.603450849474143 ], [ 2.401024981421256, 39.603491630205667 ], [ 2.401029314748352, 39.603495921638213 ], [ 2.40104146350693, 39.603507957190402 ], [ 2.401075030573474, 39.603541208942225 ], [ 2.401082793571572, 39.603541248959274 ], [ 2.401082728219037, 39.603548835317781 ], [ 2.401120746458012, 39.603586496228324 ], [ 2.401140642575213, 39.603586598780893 ], [ 2.401245694820584, 39.603710271729909 ], [ 2.401254724155514, 39.603719216860284 ], [ 2.401255002507701, 39.603719491307622 ], [ 2.401255264669872, 39.603719752156067 ], [ 2.401258362695179, 39.603722360392197 ], [ 2.401290662390981, 39.603749557818475 ], [ 2.401313802106789, 39.603767697709443 ], [ 2.401348511703141, 39.603794907537306 ], [ 2.401371651449134, 39.603813047416836 ], [ 2.401406361090762, 39.603840257227546 ], [ 2.40142950086694, 39.603858397095657 ], [ 2.401464210553845, 39.603885606889236 ], [ 2.401487350360207, 39.6039037467459 ], [ 2.40152206009239, 39.603930956522298 ], [ 2.401579909706397, 39.603976306126789 ], [ 2.401637759395865, 39.604021655702688 ], [ 2.401660899292782, 39.60403979552504 ], [ 2.401695609160797, 39.604067005249995 ], [ 2.401718749087899, 39.604085145060907 ], [ 2.40175345900119, 39.604112354768723 ], [ 2.401776598958477, 39.604130494568224 ], [ 2.401811308917047, 39.604157704258867 ], [ 2.401834448904519, 39.604175844046907 ], [ 2.401869158908366, 39.604203053720418 ], [ 2.401892298926023, 39.604221193497033 ], [ 2.401927008975148, 39.604248403153377 ], [ 2.401984859117393, 39.604293752557744 ], [ 2.402007999195421, 39.604311892311486 ], [ 2.402042709335102, 39.604339101933526 ], [ 2.40206590109859, 39.604351235658278 ], [ 2.402112284665444, 39.604375501292012 ], [ 2.402181937544698, 39.604402890681733 ], [ 2.402181860068928, 39.604411900609165 ], [ 2.402216647798098, 39.604430100252237 ], [ 2.402239839622538, 39.604442233942528 ], [ 2.402251435545552, 39.604448299884979 ], [ 2.402298025799622, 39.604448539572424 ], [ 2.402297819234688, 39.604472566346189 ], [ 2.40233840499419, 39.604493798921581 ], [ 2.402355876351111, 39.60449388879357 ], [ 2.40235579889763, 39.604502898721165 ], [ 2.402390586718227, 39.604521098312553 ], [ 2.402413804424137, 39.604530228058543 ], [ 2.402437022136189, 39.604539357799901 ], [ 2.402471964873637, 39.604539537511783 ], [ 2.402471848715782, 39.604553052403311 ], [ 2.402506675309192, 39.604566746996362 ], [ 2.402529931761375, 39.604571371755426 ], [ 2.402588072905606, 39.604582933632805 ], [ 2.402599701136813, 39.604585246004788 ], [ 2.402704529422397, 39.60458578496263 ], [ 2.402704355253112, 39.604606057300636 ], [ 2.402739239972715, 39.604612994378364 ], [ 2.402762500752148, 39.604617119040071 ], [ 2.402843913521685, 39.604631553067009 ], [ 2.402995332264917, 39.6046323312138 ], [ 2.402995108747766, 39.604658359995959 ], [ 2.403053260790661, 39.604668670162432 ], [ 2.403105597643536, 39.604677949377574 ], [ 2.403227897484678, 39.604678577621243 ], [ 2.403227717017184, 39.604699601388901 ], [ 2.40326260828768, 39.604705786882086 ], [ 2.403285872571804, 39.604709510497592 ], [ 2.403378929733785, 39.6047244049131 ], [ 2.403518701081472, 39.604725122567245 ], [ 2.403518515553205, 39.60474674639714 ], [ 2.403553412022394, 39.604752331742027 ], [ 2.403576686270904, 39.604754897523577 ], [ 2.403724907241764, 39.604771232653164 ], [ 2.403984219394284, 39.604772563182742 ], [ 2.404360394472346, 39.604798694042792 ], [ 2.404857405450168, 39.604822090872446 ], [ 2.404973881767879, 39.604822687448326 ], [ 2.405032119928034, 39.604822985692508 ], [ 2.405031904551119, 39.604848152232996 ], [ 2.405088894795496, 39.604852855514096 ], [ 2.40509010418317, 39.604852955413989 ], [ 2.405090676869135, 39.604853002496966 ], [ 2.405206503472482, 39.604862561688691 ], [ 2.405272583363984, 39.604868015119038 ], [ 2.405288781499026, 39.60486935136921 ], [ 2.405381163595411, 39.604869824204471 ], [ 2.40555587820985, 39.604870718237834 ], [ 2.405572783596353, 39.604870804730552 ], [ 2.405587233347909, 39.604866419447049 ], [ 2.405603372971397, 39.604861521109164 ], [ 2.405614225755931, 39.604858227492578 ], [ 2.405614501577198, 39.604825966528665 ], [ 2.405672739746874, 39.604826264451752 ], [ 2.405718764208214, 39.604826499873759 ], [ 2.405776181252023, 39.604809073836726 ], [ 2.405776627369813, 39.604808938260391 ], [ 2.405789402405346, 39.604805061579142 ], [ 2.405789601135561, 39.604781810546662 ], [ 2.4058478392701, 39.604782108381713 ], [ 2.406347934448002, 39.604629884414933 ], [ 2.406373521188862, 39.60460458890639 ], [ 2.406431759181115, 39.604604886447632 ], [ 2.406448664505663, 39.604604972812439 ], [ 2.406490106351622, 39.604592395259111 ], [ 2.406490381763859, 39.604560134288576 ], [ 2.406606857677218, 39.604560729224197 ], [ 2.406674180756719, 39.604561073043733 ], [ 2.406684145227288, 39.604559491257753 ], [ 2.406723402416157, 39.604553259250558 ], [ 2.406771274555106, 39.604545659299013 ], [ 2.406781721908094, 39.604544000679304 ], [ 2.406781955953838, 39.604516571734877 ], [ 2.406949115101307, 39.604517425094045 ], [ 2.407014999731697, 39.604506965199299 ], [ 2.407053867287735, 39.604500795064965 ], [ 2.407054581118762, 39.604500681573718 ], [ 2.407073319147717, 39.604497706481069 ], [ 2.407073529787218, 39.604473008446348 ], [ 2.407224049108455, 39.604473776490828 ], [ 2.407253021003972, 39.604469176759729 ], [ 2.407319331272928, 39.604458649484101 ], [ 2.407323953829318, 39.604458989326936 ], [ 2.407359709709714, 39.604461613515319 ], [ 2.407391564763209, 39.604463951090764 ], [ 2.407515909483075, 39.604473077483313 ], [ 2.407547939153797, 39.604475428520807 ], [ 2.407888860317558, 39.604477166444084 ], [ 2.407947098219049, 39.60447746322501 ], [ 2.407946866206247, 39.604504707471719 ], [ 2.407988045585103, 39.604507730329047 ], [ 2.407988739382242, 39.604507780717945 ], [ 2.407989945366251, 39.604507869757924 ], [ 2.407992561059615, 39.604508061490371 ], [ 2.408060621422103, 39.604513056691154 ], [ 2.408074648609437, 39.604514085953639 ], [ 2.40812147845586, 39.604517523192818 ], [ 2.408131297489045, 39.604518243581488 ], [ 2.40815708307291, 39.604520135552946 ], [ 2.408161760502018, 39.604523608532929 ], [ 2.408179666339962, 39.604523699742316 ], [ 2.408179554628096, 39.604536822715652 ], [ 2.408180682031823, 39.604537659210564 ], [ 2.408189800756942, 39.604544430967344 ], [ 2.408222849514372, 39.604568971337649 ], [ 2.408237520826698, 39.604569046063411 ], [ 2.408237429310772, 39.604579797621334 ], [ 2.408245365093615, 39.604585690247937 ], [ 2.408250258976583, 39.604589324710609 ], [ 2.40828393977125, 39.604614334116427 ], [ 2.408295375388899, 39.604614392355906 ], [ 2.408326225408683, 39.604645734207701 ], [ 2.408372228973856, 39.604679894157293 ], [ 2.408436948185723, 39.604727951401465 ], [ 2.408440292200745, 39.604730434554284 ], [ 2.408440578103078, 39.604730646851621 ], [ 2.408440806135289, 39.604730815604746 ], [ 2.408440990174859, 39.604730952597727 ], [ 2.408441927752162, 39.604731648463535 ], [ 2.408465856742218, 39.604749417022148 ], [ 2.408668041016185, 39.60486697408966 ], [ 2.408758980852292, 39.604887062292505 ], [ 2.408758796401137, 39.604908751013888 ], [ 2.408774138986086, 39.604913588342924 ], [ 2.408775175221502, 39.604913915284655 ], [ 2.408834099014534, 39.604932496165183 ], [ 2.409282742384784, 39.60493477805899 ], [ 2.40934098068426, 39.60493507414408 ], [ 2.409406400931856, 39.604935406707575 ], [ 2.40944300171192, 39.604934867420027 ], [ 2.409493174311558, 39.604934126790226 ], [ 2.409509869381903, 39.604933880962136 ], [ 2.409515945826889, 39.604933791106063 ], [ 2.409557191315954, 39.604933182581711 ], [ 2.409605263481034, 39.604932473577797 ], [ 2.409629646134748, 39.604932114522178 ], [ 2.409654105685772, 39.604931753149067 ], [ 2.409689157064065, 39.604931236546406 ], [ 2.409727430735543, 39.604930671429585 ], [ 2.409767526398909, 39.604930080415762 ], [ 2.409809578040432, 39.60492945967858 ], [ 2.409830162920567, 39.604929156074796 ], [ 2.409846387825168, 39.604937642421717 ], [ 2.409865125418222, 39.604937737596451 ], [ 2.409865043391773, 39.604947400756188 ], [ 2.409894788870973, 39.604962959497819 ], [ 2.409897311149057, 39.604964278805966 ], [ 2.409897815604693, 39.604964542667581 ], [ 2.40989803246008, 39.604964656398096 ], [ 2.409923026789286, 39.604977730280886 ], [ 2.409964368991467, 39.604999354185537 ], [ 2.410039075754506, 39.605028724282263 ], [ 2.410038993751972, 39.605038387442143 ], [ 2.410070900933775, 39.605055077098953 ], [ 2.410071261594045, 39.605055265443994 ], [ 2.410071491208933, 39.605055385546173 ], [ 2.410071650086431, 39.605055468346855 ], [ 2.41009697730185, 39.605068716880695 ], [ 2.410138319612665, 39.605090340723926 ], [ 2.410213026547885, 39.605119710709602 ], [ 2.410222438818022, 39.605134339901433 ], [ 2.410245018827992, 39.605146150825853 ], [ 2.410245212496127, 39.605146251823527 ], [ 2.410245360929337, 39.605146330065814 ], [ 2.410245478058975, 39.605146391029542 ], [ 2.410245573157356, 39.605146440168056 ], [ 2.410311608518857, 39.605180980349552 ], [ 2.410386977798356, 39.605210696878459 ], [ 2.410386895843648, 39.605220360038672 ], [ 2.410419163855303, 39.605237237944607 ], [ 2.410419274027197, 39.605237295268751 ], [ 2.410419365639148, 39.605237343488362 ], [ 2.410419444499744, 39.605237384435021 ], [ 2.410419511758482, 39.605237419916584 ], [ 2.410444879698259, 39.605250689304903 ], [ 2.410455215914067, 39.605256094788807 ], [ 2.410503072885504, 39.60525633761462 ], [ 2.4105028636113, 39.605281017641417 ], [ 2.410542191812433, 39.605301587725641 ], [ 2.410560929505923, 39.605301682788863 ], [ 2.410560847575128, 39.605311345949225 ], [ 2.4105932026476, 39.605328269300067 ], [ 2.4105932791865, 39.605328309333778 ], [ 2.410593345288273, 39.605328343908361 ], [ 2.410593404431975, 39.605328374843523 ], [ 2.410618831582106, 39.605341675129274 ], [ 2.410629167825073, 39.605347080597838 ], [ 2.41067702486064, 39.605347323352461 ], [ 2.410676815647511, 39.605372003379628 ], [ 2.410716143951986, 39.605392573405418 ], [ 2.410734881670585, 39.605392668440771 ], [ 2.410734799763704, 39.605402331601262 ], [ 2.410767139840226, 39.605419247619295 ], [ 2.410768009610369, 39.605419701645665 ], [ 2.410787477212749, 39.605429884732338 ], [ 2.41081883183956, 39.605438145824323 ], [ 2.41085097729287, 39.6054383088318 ], [ 2.410909216030599, 39.605438604133958 ], [ 2.410909018549872, 39.605461909244923 ], [ 2.410993166370284, 39.605484081392447 ], [ 2.411025311845842, 39.605484244351864 ], [ 2.411083550623877, 39.605484539566916 ], [ 2.411083353201267, 39.605507844678428 ], [ 2.411167501134271, 39.605530016700342 ], [ 2.411199646632077, 39.605530179611662 ], [ 2.411257885450417, 39.605530474739616 ], [ 2.411257688085927, 39.605553779851689 ], [ 2.411341836131522, 39.605575951747966 ], [ 2.411373981651573, 39.605576114611232 ], [ 2.411432220510219, 39.605576409652073 ], [ 2.411432023203848, 39.605599714764679 ], [ 2.411516171362032, 39.605621886535346 ], [ 2.411606555803281, 39.60562234430428 ], [ 2.411664794703087, 39.605622639228862 ], [ 2.411664596993979, 39.605646001104866 ], [ 2.411699509306387, 39.605649845992716 ], [ 2.411757748230204, 39.605650140870857 ], [ 2.411815987154878, 39.605650435719809 ], [ 2.411874226080407, 39.605650730539566 ], [ 2.411932465006792, 39.60565102533014 ], [ 2.411990703934034, 39.605651320091503 ], [ 2.412048942862131, 39.605651614823699 ], [ 2.412107181791085, 39.605651909526692 ], [ 2.412165420720894, 39.605652204200503 ], [ 2.412223659651559, 39.60565249884511 ], [ 2.412281898583079, 39.605652793460536 ], [ 2.412340137515455, 39.605653088046772 ], [ 2.412398376448686, 39.605653382603819 ], [ 2.412456615382772, 39.60565367713167 ], [ 2.412514854317714, 39.605653971630339 ], [ 2.41253814989193, 39.605654089421634 ], [ 2.41257309325351, 39.605654266099812 ], [ 2.412596414202027, 39.605651380865609 ], [ 2.412596617216397, 39.605627354051947 ], [ 2.412654856130751, 39.605627648480272 ], [ 2.412713095045958, 39.605627942879423 ], [ 2.412782981745337, 39.60562829611986 ], [ 2.412922907321974, 39.605610982588502 ], [ 2.412933797228359, 39.605607956082295 ], [ 2.412933855687907, 39.605607930247736 ], [ 2.412934322207134, 39.605607722664367 ], [ 2.412944944532474, 39.605603001764543 ], [ 2.412946276274141, 39.605602409306748 ], [ 2.412946431135461, 39.605584070468495 ], [ 2.412987073721382, 39.60558427581875 ], [ 2.413004737055712, 39.605576425159192 ], [ 2.413005050398743, 39.605539315004798 ], [ 2.41306328924361, 39.605539609227868 ], [ 2.413087291801385, 39.605539730480466 ], [ 2.413121658503691, 39.605524454972581 ], [ 2.413121908394543, 39.605494853704037 ], [ 2.413180147203384, 39.605495147868261 ], [ 2.413187510918433, 39.605495185060306 ], [ 2.413238579770224, 39.605472485567532 ], [ 2.413238766241969, 39.605450392284297 ], [ 2.413287728742988, 39.60545063954654 ], [ 2.413297040342103, 39.605446500369723 ], [ 2.413297385205084, 39.605405636669879 ], [ 2.413355623941019, 39.605405930745583 ], [ 2.413387946439836, 39.605406093945007 ], [ 2.413413961347878, 39.605394530785539 ], [ 2.413414242791787, 39.605361175071032 ], [ 2.413472481491696, 39.605361469087889 ], [ 2.413494583078535, 39.605361580659633 ], [ 2.413530811477582, 39.605350942132276 ], [ 2.413531100230116, 39.60531671335319 ], [ 2.413645412245165, 39.605317290312271 ], [ 2.413647583022584, 39.605316653424978 ], [ 2.413705968756154, 39.605299508576451 ], [ 2.413706196147925, 39.605272545415524 ], [ 2.413764434776635, 39.605272839285497 ], [ 2.413796242386451, 39.605272999773184 ], [ 2.413822740137828, 39.605265218790571 ], [ 2.413823053253477, 39.605228083400867 ], [ 2.413947072337618, 39.60522870903656 ], [ 2.413997896989085, 39.605213784790656 ], [ 2.413998148767308, 39.605183915019502 ], [ 2.414056387324815, 39.605184208742607 ], [ 2.414097900933899, 39.605184418096478 ], [ 2.414112623423531, 39.605180095298358 ], [ 2.414173053591543, 39.605162349623328 ], [ 2.41417324406156, 39.605139746372295 ], [ 2.414231482583891, 39.605140040007349 ], [ 2.414247651927383, 39.605140121527008 ], [ 2.414289846439812, 39.605125457291336 ], [ 2.414290100649929, 39.605095283883024 ], [ 2.414348339136232, 39.605095577459217 ], [ 2.414375428186041, 39.605095714003305 ], [ 2.414406670403034, 39.605084856346913 ], [ 2.414406957089921, 39.605050821274737 ], [ 2.414465195540195, 39.605051114792097 ], [ 2.414503204282842, 39.605051306337536 ], [ 2.414523494238546, 39.605044254382733 ], [ 2.414523813381536, 39.605006358547485 ], [ 2.414630980217786, 39.605006898529666 ], [ 2.414640317931169, 39.605003653200768 ], [ 2.414697643268714, 39.604983730031044 ], [ 2.414698729726743, 39.60498335256527 ], [ 2.414698907902992, 39.604962189100924 ], [ 2.414757146282061, 39.604962482471407 ], [ 2.414758755990869, 39.604962490579751 ], [ 2.414815553216417, 39.604942751205179 ], [ 2.414815763861824, 39.60491772607687 ], [ 2.414874002204863, 39.604918019388521 ], [ 2.414886531602095, 39.604918082487771 ], [ 2.414932376578372, 39.604902148825339 ], [ 2.414932619672279, 39.60487326293385 ], [ 2.414990857979288, 39.604873556186647 ], [ 2.415014307051462, 39.604873674253696 ], [ 2.415049199797445, 39.604861547227713 ], [ 2.415049475334357, 39.604828799671871 ], [ 2.41515502171824, 39.604829331011629 ], [ 2.415165975585609, 39.604826567718852 ], [ 2.415224340169586, 39.604811843974041 ], [ 2.415224569083004, 39.604784629425964 ], [ 2.415375651698402, 39.604766988850884 ], [ 2.415474533673945, 39.60474872866159 ], [ 2.415516162708327, 39.604738226608887 ], [ 2.415574527145909, 39.604723502686852 ], [ 2.415574755921532, 39.604696288136651 ], [ 2.415680302114144, 39.604696818997787 ], [ 2.4156912559403, 39.604694055655138 ], [ 2.415732918756336, 39.604683545585097 ], [ 2.415749620304684, 39.604679331644462 ], [ 2.41574984901141, 39.604652117093224 ], [ 2.415855395140262, 39.604652647794815 ], [ 2.415924713243865, 39.604635160336237 ], [ 2.415924941881694, 39.60460794578394 ], [ 2.416030487946785, 39.604608476325964 ], [ 2.416041441745466, 39.604605712950054 ], [ 2.416099805963452, 39.604590988762148 ], [ 2.416100034532385, 39.604563774208799 ], [ 2.416158272592278, 39.604564066874531 ], [ 2.416200072377912, 39.604564276914452 ], [ 2.416274926552206, 39.604543471527748 ], [ 2.416275126963478, 39.604519602367816 ], [ 2.416333364988188, 39.604519894945533 ], [ 2.416359282074222, 39.604520025139067 ], [ 2.41639167997193, 39.604511019869562 ], [ 2.416391981186298, 39.604475137742106 ], [ 2.416450219174973, 39.604475430260983 ], [ 2.4165084571645, 39.604475722750664 ], [ 2.416518490405419, 39.604475773137835 ], [ 2.41656680989572, 39.604462342610944 ], [ 2.416567073213378, 39.604430965457446 ], [ 2.416677699701038, 39.604431520922454 ], [ 2.416741939577092, 39.604413665086135 ], [ 2.416742165020858, 39.604386792906972 ], [ 2.416800402939165, 39.604387085249776 ], [ 2.416836908796311, 39.604387268487073 ], [ 2.41685869255829, 39.604381213855703 ], [ 2.416886247417125, 39.604373554611506 ], [ 2.416917015817513, 39.604371330300921 ], [ 2.416917256608736, 39.604342620090655 ], [ 2.416975494491857, 39.604342912345402 ], [ 2.417091970260644, 39.604343496767406 ], [ 2.417150208146311, 39.604343788934607 ], [ 2.4174529085484, 39.604321437781032 ], [ 2.417573644186371, 39.6042943291027 ], [ 2.417616866014881, 39.604256025694902 ], [ 2.417733341651398, 39.604256609472863 ], [ 2.417741456509122, 39.604256650140321 ], [ 2.417791676004778, 39.604245373984185 ], [ 2.417791956732812, 39.604211851552854 ], [ 2.417850194515458, 39.6042121433684 ], [ 2.417908432298949, 39.604212435154771 ], [ 2.417937723574855, 39.604212581900597 ], [ 2.417940627061507, 39.604211930582856 ], [ 2.418023728990525, 39.604193271099142 ], [ 2.418025076308581, 39.604192896710856 ], [ 2.418025284978585, 39.60416796887251 ], [ 2.418083522726888, 39.604168260570823 ], [ 2.418113171564873, 39.604168409063242 ], [ 2.418176853930497, 39.604150707319889 ], [ 2.418200224423774, 39.604141814018462 ], [ 2.418200375222099, 39.604123794110748 ], [ 2.41824696539252, 39.604124027401333 ], [ 2.418293706337525, 39.604106240765162 ], [ 2.418317081821694, 39.604096747376992 ], [ 2.418317227568926, 39.604079327531714 ], [ 2.41833782507046, 39.60407943065097 ], [ 2.41835295332656, 39.60406121541363 ], [ 2.418354294721012, 39.604059599368163 ], [ 2.418375086202617, 39.604034565527762 ], [ 2.418375849860771, 39.604033644890585 ], [ 2.418376219007511, 39.603989519540285 ], [ 2.418412346121723, 39.603989700386066 ], [ 2.418434682511626, 39.603962805525086 ], [ 2.41843483345172, 39.603944761289213 ], [ 2.41843521029263, 39.603899711516412 ], [ 2.418486868144535, 39.603899970076412 ], [ 2.418493515042066, 39.603891966128046 ], [ 2.418493824622799, 39.603854953234013 ], [ 2.418524127918742, 39.603855104896788 ], [ 2.418552347459627, 39.603821125798476 ], [ 2.418552815640414, 39.603765145146397 ], [ 2.418598649651753, 39.603765374511227 ], [ 2.418611179749238, 39.603750286338361 ], [ 2.418611429781081, 39.603720386802259 ], [ 2.418635909281063, 39.603720509293659 ], [ 2.418658299625578, 39.603693548882596 ], [ 2.418670011925968, 39.603679445945716 ], [ 2.418670043846286, 39.603675628427666 ], [ 2.418670420531193, 39.603630578650893 ], [ 2.418710430724274, 39.603630778832219 ], [ 2.418728843974751, 39.603608606422554 ], [ 2.418729034482359, 39.603585820245009 ], [ 2.418729411127842, 39.60354077046707 ], [ 2.418787648358063, 39.603541061808649 ], [ 2.41880479223406, 39.60354114756823 ], [ 2.418805543622955, 39.603540717929896 ], [ 2.418846084869644, 39.603517512777941 ], [ 2.418846262158306, 39.603496303341835 ], [ 2.418882818809742, 39.603496486189243 ], [ 2.418904604479918, 39.603484016726036 ], [ 2.418904875883089, 39.603451544844553 ], [ 2.418960845285467, 39.603451824756775 ], [ 2.418963124033966, 39.603450520644024 ], [ 2.41896348953241, 39.603406786316782 ], [ 2.419038870496494, 39.603407163265018 ], [ 2.419080162973384, 39.603383528389806 ], [ 2.419080340189798, 39.603362318952335 ], [ 2.419116896772305, 39.603362501725591 ], [ 2.419138682358755, 39.603350032217563 ], [ 2.419138953651312, 39.603317560333991 ], [ 2.419180886654904, 39.603317769965734 ], [ 2.419197332939825, 39.603300824452717 ], [ 2.419197567037366, 39.603272801685193 ], [ 2.419224401487004, 39.6032729358243 ], [ 2.419245750612634, 39.603250938390055 ], [ 2.419249536135353, 39.603247038717939 ], [ 2.419252174952361, 39.603244320875902 ], [ 2.419256077979394, 39.603240298349341 ], [ 2.41925618034796, 39.603228043005906 ], [ 2.419373782964759, 39.603093475769377 ], [ 2.419398460252658, 39.603093599088012 ], [ 2.419421697319128, 39.60306965671348 ], [ 2.419432312482704, 39.60305871985269 ], [ 2.419432396010397, 39.603048716997883 ], [ 2.419432772192971, 39.603003667210146 ], [ 2.419485489297815, 39.60300393061754 ], [ 2.419491057112009, 39.602998193625005 ], [ 2.419491385124576, 39.602958908407366 ], [ 2.419551744906697, 39.602935665066937 ], [ 2.419592420726826, 39.602893755771241 ], [ 2.419648238246759, 39.602809754633078 ], [ 2.419803435037036, 39.602749992004433 ], [ 2.419843061129559, 39.602690354950909 ], [ 2.419933803538543, 39.602670774443069 ], [ 2.419997532200294, 39.602652189812332 ], [ 2.420018297438213, 39.602641629739445 ], [ 2.420031955326211, 39.60263468427182 ], [ 2.420038307785491, 39.60263401497707 ], [ 2.420072053133959, 39.602630456741991 ], [ 2.420102489432601, 39.602621581201767 ], [ 2.420720441633099, 39.602555150872526 ], [ 2.421042548249967, 39.602405994545798 ], [ 2.42106865424247, 39.602381106532242 ], [ 2.421117505166061, 39.602381349933736 ], [ 2.421126926795356, 39.60237704037803 ], [ 2.421127265601263, 39.602336346887867 ], [ 2.421214941434861, 39.602336783676897 ], [ 2.421217863325487, 39.602335447582988 ], [ 2.421243860464295, 39.602322226470292 ], [ 2.421244113093848, 39.602291877315785 ], [ 2.421302960784153, 39.602292170434986 ], [ 2.421337944866339, 39.602274379869513 ], [ 2.421338052485865, 39.60227432454144 ], [ 2.42133866775521, 39.602274012243996 ], [ 2.421360832836787, 39.602262739876764 ], [ 2.421360960438046, 39.602247407624745 ], [ 2.421390690004794, 39.602247555680911 ], [ 2.42141931894453, 39.602232996985592 ], [ 2.421419571496697, 39.602202647829685 ], [ 2.421477807633857, 39.602202937814766 ], [ 2.421497122569661, 39.602232951002954 ], [ 2.421767864355063, 39.602339536739073 ], [ 2.421826100610458, 39.602339826550434 ], [ 2.421825924230548, 39.602361036902934 ], [ 2.421844781285729, 39.602367836229888 ], [ 2.421883988817046, 39.602381974816318 ], [ 2.421892965612518, 39.602385210942813 ], [ 2.421942198576204, 39.60238545589845 ], [ 2.421942053446284, 39.602402911799857 ], [ 2.421968976863217, 39.60241262012913 ], [ 2.421969832734717, 39.60241292893641 ], [ 2.421970858154411, 39.602413298956435 ], [ 2.42197268719776, 39.602413957701046 ], [ 2.421972746419029, 39.602413979620472 ], [ 2.422000056552533, 39.602423827724564 ], [ 2.422000526881102, 39.602423996755526 ], [ 2.42201965222863, 39.602430892898326 ], [ 2.422055904346756, 39.602431073231116 ], [ 2.422132138099172, 39.602419673200657 ], [ 2.422140262022934, 39.602418457564745 ], [ 2.422174922202997, 39.602413274199556 ], [ 2.422175143763847, 39.602386614620343 ], [ 2.422347460316157, 39.602387471461185 ], [ 2.422349855740024, 39.602387113045801 ], [ 2.422430945551402, 39.602374986400868 ], [ 2.422431170635385, 39.602374952379471 ], [ 2.42246647802662, 39.60236967212974 ], [ 2.422466699475338, 39.602343012548964 ], [ 2.422524935740826, 39.602343302010077 ], [ 2.422632672834196, 39.602343837436173 ], [ 2.422676499663671, 39.602326034544781 ], [ 2.422699883938438, 39.602315338334009 ], [ 2.422700018598595, 39.602299120399046 ], [ 2.422734960337167, 39.602299294008894 ], [ 2.422758344594038, 39.60228859778617 ], [ 2.422758628847408, 39.602254359922902 ], [ 2.422816865041641, 39.602254649237153 ], [ 2.422832395470059, 39.602254726386541 ], [ 2.422875265771031, 39.602235116600895 ], [ 2.422875475178109, 39.602209888700912 ], [ 2.422929829313962, 39.602210158675462 ], [ 2.422933726292423, 39.602208375963457 ], [ 2.422968802583784, 39.602192331566641 ], [ 2.422992196736318, 39.602180434267865 ], [ 2.422992321360417, 39.602165417359963 ], [ 2.42302143942138, 39.602165561961904 ], [ 2.423050682086505, 39.602150690549465 ], [ 2.423050931309083, 39.602120656733142 ], [ 2.42310916739433, 39.602120945900097 ], [ 2.423144258552112, 39.602103099456492 ], [ 2.42316766510567, 39.602089700160612 ], [ 2.423167777230653, 39.602076185213164 ], [ 2.423191071650231, 39.602076300859913 ], [ 2.423226181450205, 39.602056201899849 ], [ 2.423226386991518, 39.602031424495785 ], [ 2.423355676744838, 39.601982071487569 ], [ 2.423378323682863, 39.601969106281118 ], [ 2.423436933218368, 39.60192434545506 ], [ 2.423444058769173, 39.601914572162087 ], [ 2.423460825280422, 39.601852381321656 ], [ 2.423489296794598, 39.601852522597781 ], [ 2.423519404782533, 39.601811224438357 ], [ 2.423519808182002, 39.601762570622078 ], [ 2.423554749655985, 39.601762743983429 ], [ 2.423578312877412, 39.601730423673764 ], [ 2.423578417451568, 39.601717809721123 ], [ 2.423578790930155, 39.601672759890043 ], [ 2.423620203512086, 39.601672965335375 ], [ 2.423637220834594, 39.601649622877162 ], [ 2.423637400085699, 39.601627998957824 ], [ 2.423637773524882, 39.601582949125557 ], [ 2.423724473860623, 39.601529943375702 ], [ 2.423731473279675, 39.601520341536101 ], [ 2.423726420122116, 39.601486525006003 ], [ 2.423626386950829, 39.601117427624295 ], [ 2.423441127165963, 39.600936089060603 ], [ 2.423385978930471, 39.600884221290514 ], [ 2.423379498715378, 39.600878127876278 ], [ 2.423377836772012, 39.600876564444022 ], [ 2.423352573263891, 39.600860707012849 ], [ 2.423352638295125, 39.600852865638402 ], [ 2.42331286606002, 39.600815458247517 ], [ 2.423294711882919, 39.600815368140033 ], [ 2.423294851650699, 39.600798516798477 ], [ 2.423280584149541, 39.600785097164497 ], [ 2.423277067261617, 39.600781789132363 ], [ 2.423273914673523, 39.600777249393083 ], [ 2.423269011414075, 39.600770188881583 ], [ 2.423236850577398, 39.600770029238603 ], [ 2.423237224264721, 39.60072497940287 ], [ 2.423237228928334, 39.600724417180921 ], [ 2.423206230315522, 39.600679773852875 ], [ 2.423179363071538, 39.600679640472933 ], [ 2.423179679174295, 39.600641536420667 ], [ 2.42317483924474, 39.60063456632286 ], [ 2.423143449379229, 39.600589358790067 ], [ 2.423121875714062, 39.600589251678478 ], [ 2.423122129549125, 39.600558656532726 ], [ 2.423102189798493, 39.600529938893025 ], [ 2.423098894507846, 39.600525193905639 ], [ 2.423094799293462, 39.60051929522718 ], [ 2.423080667440491, 39.60049894368732 ], [ 2.42306438850497, 39.600498862855289 ], [ 2.423064580067774, 39.600475775715147 ], [ 2.423049276531982, 39.600453736123157 ], [ 2.423006527611909, 39.600453523839704 ], [ 2.423006901444258, 39.600408474003331 ], [ 2.423007030722766, 39.60039289486884 ], [ 2.422986496001337, 39.600363320974978 ], [ 2.422949040663534, 39.600363134959245 ], [ 2.422949414531928, 39.600318085122623 ], [ 2.422949481506623, 39.600310014894838 ], [ 2.422923714468259, 39.600272905786909 ], [ 2.422891553863538, 39.600272746050017 ], [ 2.422856920793626, 39.600176711225856 ], [ 2.422851854184418, 39.600169414714955 ], [ 2.422838539679336, 39.600150238548871 ], [ 2.42281705778032, 39.600086895475734 ], [ 2.422814849895884, 39.600080386251264 ], [ 2.422813930138264, 39.600077674075351 ], [ 2.422811474410621, 39.600070433782157 ], [ 2.422810321591447, 39.60006703386059 ], [ 2.422767769481485, 39.599941562534731 ], [ 2.422719842378127, 39.59991147947423 ], [ 2.422720216389019, 39.599866429635917 ], [ 2.422688636365762, 39.599711492215668 ], [ 2.422687762434857, 39.599705646470184 ], [ 2.422670088250999, 39.599653532048698 ], [ 2.422675574573193, 39.599624158571011 ], [ 2.422664600512744, 39.599550791412867 ], [ 2.42266497455464, 39.59950574157218 ], [ 2.422697800078239, 39.599485673758515 ], [ 2.422769604548757, 39.599061349742115 ], [ 2.422768965031215, 39.599054485190642 ], [ 2.422763450636441, 39.598995210299982 ], [ 2.422763194002838, 39.598992451860752 ], [ 2.422728070423708, 39.598920382949828 ], [ 2.422729192398421, 39.598785233410517 ], [ 2.422730398520285, 39.598639946751234 ], [ 2.422714470353817, 39.598468735101349 ], [ 2.422710376040698, 39.598424726271524 ], [ 2.422673951308083, 39.598424545289994 ], [ 2.42267677326001, 39.59808464596874 ], [ 2.422662599526492, 39.597982295544007 ], [ 2.422661445746167, 39.597973966056834 ], [ 2.422655202219883, 39.59792888332187 ], [ 2.422619832921513, 39.597928707568357 ], [ 2.422604548951589, 39.597563115357381 ], [ 2.422600439435225, 39.597533435589952 ], [ 2.422565341185279, 39.59747791964093 ], [ 2.422565715263968, 39.59743286978491 ], [ 2.422538162808805, 39.597261399376741 ], [ 2.42235140840182, 39.597027403219649 ], [ 2.422247125068237, 39.596964158316787 ], [ 2.422135898412918, 39.596901855509778 ], [ 2.422081212584124, 39.596871224071165 ], [ 2.422080616717937, 39.596870889526748 ], [ 2.422023248348028, 39.596838756209429 ], [ 2.422003280842354, 39.596827571456366 ], [ 2.422023675832326, 39.596787321887021 ], [ 2.422025359616357, 39.596784000039627 ], [ 2.422045765226936, 39.596743730696147 ], [ 2.422166325533782, 39.596439746444965 ], [ 2.422199714207211, 39.596439912485565 ], [ 2.422203442896029, 39.596432555159623 ], [ 2.422203985218144, 39.596431483823395 ], [ 2.422222485424363, 39.59639497399791 ], [ 2.422224972017612, 39.596390065813623 ], [ 2.422225679706997, 39.596304886435696 ], [ 2.422261364954817, 39.596305063878333 ], [ 2.422262660772302, 39.596300212844667 ], [ 2.422263562294782, 39.596296840250091 ], [ 2.422269760099308, 39.596273637893169 ], [ 2.422273385448626, 39.596260071923368 ], [ 2.422275706611632, 39.596251383075625 ], [ 2.422281413957525, 39.596230018191683 ], [ 2.422284635429352, 39.596217962149147 ], [ 2.42228653061377, 39.595989826933391 ], [ 2.422286770104722, 39.595960997722592 ], [ 2.422284850525763, 39.595941675404326 ], [ 2.4222820517542, 39.595913505060629 ], [ 2.422280528097173, 39.595874983664778 ], [ 2.422278279712657, 39.5958181334247 ], [ 2.422277940829136, 39.595809577317731 ], [ 2.422273751957661, 39.595703677721694 ], [ 2.422272359091529, 39.595668479990167 ], [ 2.422270949923624, 39.595632861394222 ], [ 2.422270811507817, 39.595629334957707 ], [ 2.422269524528836, 39.595596812923866 ], [ 2.422268081794996, 39.595560328266323 ], [ 2.42226805760478, 39.59555973526529 ], [ 2.422268021073979, 39.595558805215951 ], [ 2.422267246276584, 39.595539213772639 ], [ 2.422232042406158, 39.595539038726365 ], [ 2.422232790943028, 39.595448938989144 ], [ 2.422234126301998, 39.595288203757427 ], [ 2.422212634374747, 39.595202196750627 ], [ 2.422212562242854, 39.595201907159812 ], [ 2.422212443904137, 39.595201431726096 ], [ 2.422211582717817, 39.595197988194478 ], [ 2.422206713333592, 39.595178498929208 ], [ 2.422176806270787, 39.595178350205998 ], [ 2.422177554869636, 39.595088250464059 ], [ 2.422197739551703, 39.59501338205316 ], [ 2.422213949275582, 39.594988555358206 ], [ 2.422217786484168, 39.594968686801955 ], [ 2.422220755977665, 39.59495331009375 ], [ 2.422221155145881, 39.594951244204054 ], [ 2.422237634509099, 39.594865919773376 ], [ 2.422238030606966, 39.594818240788996 ], [ 2.422238404862372, 39.594773190914914 ], [ 2.42228657731391, 39.594773430439098 ], [ 2.422296770522488, 39.594757139954019 ], [ 2.422297009003305, 39.59472843056971 ], [ 2.422297383219315, 39.594683380694434 ], [ 2.422342782703696, 39.594683606408161 ], [ 2.422355786208308, 39.5946628247154 ], [ 2.422355987246266, 39.594638620317937 ], [ 2.422356361422881, 39.594593570441511 ], [ 2.42239898794722, 39.594593782347609 ], [ 2.422414801732862, 39.594568509444123 ], [ 2.42241533947307, 39.594503760156158 ], [ 2.422453460206694, 39.594485848757053 ], [ 2.422582040555353, 39.59418981849754 ], [ 2.422585150946734, 39.594181023636118 ], [ 2.422585439561945, 39.594180207831798 ], [ 2.422590423610308, 39.594166111582048 ], [ 2.422592433202587, 39.594160428830548 ], [ 2.422592651172382, 39.594134174660326 ], [ 2.422593017850808, 39.594090008656813 ], [ 2.422593384535906, 39.594045841751949 ], [ 2.422593751212717, 39.594001675747734 ], [ 2.4225941178962, 39.593957508842173 ], [ 2.422594340613759, 39.59393068253754 ], [ 2.422583262939694, 39.593835256553355 ], [ 2.422572870818072, 39.593765694575346 ], [ 2.422565914353306, 39.593729239274282 ], [ 2.422468273824943, 39.593588330417646 ], [ 2.422458048555565, 39.593574567644353 ], [ 2.422423196160571, 39.5935577126452 ], [ 2.422423443026652, 39.593527986027894 ], [ 2.422412017671474, 39.593512605333615 ], [ 2.422365341409507, 39.593512373301422 ], [ 2.422365715565111, 39.593467323416171 ], [ 2.422365855551473, 39.593450468451998 ], [ 2.42234483155183, 39.593422167848139 ], [ 2.422307860926343, 39.593421984043871 ], [ 2.422308235117977, 39.593376934158393 ], [ 2.422308268211446, 39.593372949946492 ], [ 2.422277646770552, 39.593331730329496 ], [ 2.422250380591504, 39.593331594757586 ], [ 2.422250703325493, 39.593292743736136 ], [ 2.422233484785509, 39.593257087062369 ], [ 2.422225895082028, 39.593241369512896 ], [ 2.42219290040499, 39.593241205442567 ], [ 2.422167351713097, 39.593120139679222 ], [ 2.422153769531341, 39.593092012103718 ], [ 2.422053908140583, 39.592899726541653 ], [ 2.422021209478116, 39.592879937551167 ], [ 2.42202158384822, 39.592834887663734 ], [ 2.422021956008706, 39.59279010357028 ], [ 2.422021861558571, 39.592789837295129 ], [ 2.422005859821582, 39.592744705947418 ], [ 2.422000869931199, 39.592730634890962 ], [ 2.421999984626034, 39.592728136422195 ], [ 2.421989856940471, 39.592699574591471 ], [ 2.421964478768374, 39.592699448344938 ], [ 2.421964853172824, 39.592654398456546 ], [ 2.421965058967616, 39.592629636334742 ], [ 2.421941850748883, 39.592564180520874 ], [ 2.421907373908062, 39.59256400899654 ], [ 2.421908162184898, 39.592469169068835 ], [ 2.421892992414525, 39.59242638453378 ], [ 2.421892582766606, 39.592425228269725 ], [ 2.421892273233377, 39.592424357230868 ], [ 2.421877842003183, 39.592383655055912 ], [ 2.421850643742108, 39.592383519728976 ], [ 2.421851018216092, 39.592338469839049 ], [ 2.421851265660549, 39.592308701772573 ], [ 2.421845837752957, 39.592293392309017 ], [ 2.421843804285934, 39.592287656113122 ], [ 2.421821767031485, 39.59224822078329 ], [ 2.421793539356047, 39.592248080320807 ], [ 2.421755027716543, 39.592128791657849 ], [ 2.421738929033398, 39.592099982037418 ], [ 2.4216785820809, 39.592067301198114 ], [ 2.421679199090642, 39.591993095017401 ], [ 2.421653670121206, 39.591947408914322 ], [ 2.421653470448633, 39.591947052011612 ], [ 2.421653236341496, 39.591946634568153 ], [ 2.421652960947335, 39.591946140331203 ], [ 2.421645047626185, 39.591931979019861 ], [ 2.421621478283046, 39.591931861702363 ], [ 2.421621822907696, 39.591890418505059 ], [ 2.421594556660073, 39.591841624179942 ], [ 2.421564000052281, 39.591841472068907 ], [ 2.421564374704715, 39.591796422177012 ], [ 2.42156441527203, 39.591791544174711 ], [ 2.421537101289034, 39.591751299520375 ], [ 2.421537057575743, 39.591751234428216 ], [ 2.421506521969826, 39.591751082406702 ], [ 2.421506890393502, 39.591706785748762 ], [ 2.421482299706543, 39.591670552532342 ], [ 2.421475698169106, 39.591660825426899 ], [ 2.42144904403568, 39.591660692715763 ], [ 2.421449365654262, 39.591622027294143 ], [ 2.421445017942946, 39.591615620911099 ], [ 2.421422522361353, 39.591582475148577 ], [ 2.421420718389822, 39.591579817122543 ], [ 2.421415705686389, 39.591572432507057 ], [ 2.421414337756406, 39.591570416387157 ], [ 2.421391566249844, 39.591570302996054 ], [ 2.421391841054313, 39.591537268810825 ], [ 2.421383658774029, 39.591525211860841 ], [ 2.421381803023089, 39.591522478790431 ], [ 2.421382051508163, 39.591492608909476 ], [ 2.421382155130946, 39.591480152614068 ], [ 2.421382341764224, 39.591457717767277 ], [ 2.421382632027275, 39.591422825723853 ], [ 2.421382758787658, 39.591407588047865 ], [ 2.421383091293357, 39.59136761798009 ], [ 2.421383865485959, 39.591274553007437 ], [ 2.421394396667728, 39.591230056465399 ], [ 2.421394564310355, 39.591209903845282 ], [ 2.421395313817066, 39.591119804054046 ], [ 2.421395688569158, 39.591074754157901 ], [ 2.421431111436771, 39.591074930542909 ], [ 2.421431980465804, 39.591071260448281 ], [ 2.421432582771524, 39.591068714418583 ], [ 2.421432920758015, 39.591067283455452 ], [ 2.421433138003981, 39.591066367283297 ], [ 2.4214386081628, 39.591043253232009 ], [ 2.421443833291144, 39.591021175051914 ], [ 2.421448830262545, 39.591000064348357 ], [ 2.421451511033199, 39.590988735464272 ], [ 2.421454747003954, 39.59097506304866 ], [ 2.421455039526442, 39.590939894395511 ], [ 2.421455116776936, 39.590930606908543 ], [ 2.421445509881119, 39.590894795182855 ], [ 2.421433407795248, 39.590849683160343 ], [ 2.421397562316995, 39.590849504671894 ], [ 2.421397937064038, 39.590804454773632 ], [ 2.421398311810239, 39.590759404874994 ], [ 2.42139863889553, 39.590720084422195 ], [ 2.421388783549931, 39.590683346991256 ], [ 2.421375119517283, 39.59062413408995 ], [ 2.421341209602523, 39.590623965222953 ], [ 2.421342388232014, 39.590482289594583 ], [ 2.421323080450137, 39.590398616104778 ], [ 2.421284857244912, 39.590398425740588 ], [ 2.421286185904405, 39.590238730147369 ], [ 2.421269822135276, 39.590167811948476 ], [ 2.421265012833559, 39.590128016293086 ], [ 2.421228880091692, 39.590127836322665 ], [ 2.42123120616675, 39.58984828184979 ], [ 2.421226878546452, 39.589812463958367 ], [ 2.421224041293659, 39.589788995873548 ], [ 2.421221952695081, 39.589771705412495 ], [ 2.421216436316417, 39.589726060312593 ], [ 2.421215983096218, 39.58972230614345 ], [ 2.421210535381162, 39.589677227235178 ], [ 2.421174402873801, 39.589677047249516 ], [ 2.421175577612339, 39.58953587526014 ], [ 2.421159089178566, 39.58949676387045 ], [ 2.421117676877395, 39.589496557565731 ], [ 2.42111842669718, 39.589406457752261 ], [ 2.421118476815015, 39.589400435480663 ], [ 2.421101988444621, 39.589361324082461 ], [ 2.4210605762245, 39.589361117757932 ], [ 2.421061376237179, 39.589264995671606 ], [ 2.421044887930166, 39.589225884264856 ], [ 2.421003475791093, 39.589225677920581 ], [ 2.421004275878829, 39.589129555832962 ], [ 2.420987787635196, 39.589090444417657 ], [ 2.420946375577172, 39.589090238053622 ], [ 2.420947175739964, 39.588994115964752 ], [ 2.420930687559711, 39.588955004540907 ], [ 2.420889275582734, 39.58895479815709 ], [ 2.420867131818738, 39.588831550470893 ], [ 2.42083178446067, 39.588749571074402 ], [ 2.420809545427586, 39.588708695573104 ], [ 2.420757342445129, 39.588612748977354 ], [ 2.420717601758905, 39.588593528200398 ], [ 2.420720227842951, 39.588278178820254 ], [ 2.420720978145095, 39.588188078994143 ], [ 2.420758279022041, 39.588188264943348 ], [ 2.420758592923253, 39.588185670624341 ], [ 2.420758836879049, 39.588183644510181 ], [ 2.420763717337904, 39.588143240269126 ], [ 2.420780752746416, 39.588002193264245 ], [ 2.420781828308124, 39.587873019838618 ], [ 2.420782953624221, 39.587737870088048 ], [ 2.420816994879538, 39.587738039769448 ], [ 2.420818642011804, 39.587727211222536 ], [ 2.42081877506724, 39.587726336078987 ], [ 2.42082197333957, 39.587705298419209 ], [ 2.420842140504216, 39.587622509055073 ], [ 2.420842677902894, 39.587557960630122 ], [ 2.420843052965505, 39.587512910710679 ], [ 2.420843428027273, 39.587467860790895 ], [ 2.42087976899071, 39.587468041915777 ], [ 2.42088001858058, 39.587467016879934 ], [ 2.420880289866078, 39.587465903650731 ], [ 2.420880498453615, 39.587465047805267 ], [ 2.420880634719843, 39.587464486238076 ], [ 2.420884913835494, 39.587446922049068 ], [ 2.420889091690216, 39.587429770930619 ], [ 2.420890730271597, 39.587423044755447 ], [ 2.420893171890102, 39.587413019385153 ], [ 2.420897159213205, 39.587396653019937 ], [ 2.420902427061298, 39.587375024679986 ], [ 2.420903151909563, 39.587287951290705 ], [ 2.420903328634026, 39.587266721965484 ], [ 2.420878908897293, 39.587243749093396 ], [ 2.420877966031234, 39.587242862280199 ], [ 2.420877871279589, 39.587242773506453 ], [ 2.420845303323478, 39.587242611186625 ], [ 2.420845555076639, 39.587212371877079 ], [ 2.420829727451578, 39.587197481761471 ], [ 2.420787454812793, 39.587197271053959 ], [ 2.420787763439845, 39.587160203978321 ], [ 2.420786774231486, 39.587159428661785 ], [ 2.420777513861458, 39.587152169709647 ], [ 2.420729606377507, 39.587151930892674 ], [ 2.420539647534945, 39.586965736198039 ], [ 2.420509432315571, 39.586942054064544 ], [ 2.420507901662913, 39.586940853459595 ], [ 2.420507618897851, 39.586937752486079 ], [ 2.420504918591947, 39.586908091335488 ], [ 2.420501123609482, 39.586866412115178 ], [ 2.420496949951796, 39.58682056461609 ], [ 2.420495760381404, 39.586807496366362 ], [ 2.420494198428548, 39.5867903427649 ], [ 2.42049117382092, 39.586757116398964 ], [ 2.42049065954942, 39.586751471547466 ], [ 2.420485883127025, 39.58669900113027 ], [ 2.420485661161486, 39.586696569929465 ], [ 2.420485318712536, 39.586692805495673 ], [ 2.420485657540139, 39.586652131721934 ], [ 2.420486022404075, 39.586608332384181 ], [ 2.420486036296991, 39.586606664635994 ], [ 2.420486402893897, 39.586562657167249 ], [ 2.420486414054739, 39.586561317382511 ], [ 2.420486781896745, 39.586517160347661 ], [ 2.420487149730435, 39.586473004213474 ], [ 2.420487517570821, 39.586428847177956 ], [ 2.420487885410398, 39.586384690142076 ], [ 2.420488019481864, 39.586368595605641 ], [ 2.42048825324166, 39.586340534006887 ], [ 2.420488259396191, 39.58633979518811 ], [ 2.420488621079617, 39.586296376970324 ], [ 2.420488988909259, 39.586252220834481 ], [ 2.42048962884144, 39.586175399897115 ], [ 2.42048995202645, 39.586136602899685 ], [ 2.420490243612946, 39.586101599105902 ], [ 2.420506039485463, 39.586031071800491 ], [ 2.420506094048361, 39.586024521540885 ], [ 2.420506844567832, 39.585934421683163 ], [ 2.420542190406711, 39.585826093389215 ], [ 2.420566943170892, 39.585709462374091 ], [ 2.42056769360317, 39.585619362510492 ], [ 2.420600896584705, 39.58561952807279 ], [ 2.420604144314556, 39.58560974549944 ], [ 2.420626560724271, 39.585542218294101 ], [ 2.420627416551403, 39.585439453088519 ], [ 2.420669969615366, 39.585411453809769 ], [ 2.420693777422648, 39.585339735598595 ], [ 2.420704902454536, 39.585294064379248 ], [ 2.420747611687741, 39.584989534252792 ], [ 2.420779044429486, 39.584989690938933 ], [ 2.420782803769072, 39.58497425870975 ], [ 2.420783029237149, 39.584973332667396 ], [ 2.420788214888463, 39.584952047208368 ], [ 2.420793371637478, 39.58493087603653 ], [ 2.420795860173782, 39.58492066077909 ], [ 2.420794444464515, 39.584889573380451 ], [ 2.420791693100988, 39.584829112752494 ], [ 2.420790802178945, 39.584809542310701 ], [ 2.420788931867567, 39.584768439430135 ], [ 2.420786701282542, 39.584719418249321 ], [ 2.420786160779313, 39.584707551611352 ], [ 2.420784649673347, 39.584674356212254 ], [ 2.420750237299973, 39.584674184674803 ], [ 2.420750612384066, 39.584629134733682 ], [ 2.420753915360712, 39.584232422233875 ], [ 2.420731599888179, 39.584115449288362 ], [ 2.420723583181761, 39.584088378235343 ], [ 2.420696892362847, 39.584088245175366 ], [ 2.420697267473682, 39.584043195230109 ], [ 2.420697466079524, 39.584019343085949 ], [ 2.420666474800234, 39.583952938082362 ], [ 2.420639796842136, 39.583952805073508 ], [ 2.420640263426096, 39.583896774653788 ], [ 2.420624325661031, 39.583862624302867 ], [ 2.420582326358837, 39.583862414888173 ], [ 2.420583058113048, 39.58377454947297 ], [ 2.420581512914048, 39.583772307197954 ], [ 2.420552332399727, 39.583729973366573 ], [ 2.420550351127896, 39.583727099993268 ], [ 2.420525231241804, 39.583726974727746 ], [ 2.420525530117362, 39.583691090643228 ], [ 2.420519190546394, 39.583681892785933 ], [ 2.420499478040746, 39.583653294700532 ], [ 2.420499219162492, 39.58365291947942 ], [ 2.420498913121206, 39.583652474643301 ], [ 2.420498543787744, 39.583651939387892 ], [ 2.420498090465343, 39.583651282073689 ], [ 2.420497520948233, 39.583650454785214 ], [ 2.420496782288853, 39.583649383373398 ], [ 2.420495788206986, 39.583647941262839 ], [ 2.420488030005131, 39.583636685570212 ], [ 2.420467761091007, 39.583636584484701 ], [ 2.420468002266325, 39.583607630883833 ], [ 2.420456868339697, 39.583591478340281 ], [ 2.420409915798421, 39.583591244159749 ], [ 2.420368707222231, 39.583463575302879 ], [ 2.420354213736123, 39.583442548503967 ], [ 2.420294976166033, 39.583410463530463 ], [ 2.420295419528579, 39.583357252334672 ], [ 2.420269903849744, 39.583320234807232 ], [ 2.420237506572203, 39.583320073172736 ], [ 2.420237522954592, 39.58331810719303 ], [ 2.420228780783064, 39.583318739352883 ], [ 2.420078037435471, 39.583329639346147 ], [ 2.419874611369154, 39.583354831484222 ], [ 2.4198485367441, 39.583358060369953 ], [ 2.419839233620267, 39.583359212300948 ], [ 2.419719446758528, 39.583420145051967 ], [ 2.419560029280321, 39.58346549633189 ], [ 2.41949098658972, 39.58347746229515 ], [ 2.41930121760792, 39.583510351629009 ], [ 2.419101913604408, 39.583570886338393 ], [ 2.418843229749412, 39.583600357858799 ], [ 2.418604681586634, 39.583599164566259 ], [ 2.418369627834252, 39.583597988274818 ], [ 2.418366132273631, 39.583597970778214 ], [ 2.418332922413629, 39.58358843737166 ], [ 2.418147977520096, 39.583535347755017 ], [ 2.418099166165927, 39.583518870263063 ], [ 2.417870444222888, 39.583441661887726 ], [ 2.417612404146027, 39.583394221434098 ], [ 2.417567092382149, 39.58336756873539 ], [ 2.417454144530291, 39.583301131395075 ], [ 2.417275878955699, 39.583223325110929 ], [ 2.417238617158374, 39.58316471324779 ], [ 2.417217014745815, 39.583130733149737 ], [ 2.417069151505474, 39.58301482552114 ], [ 2.417019514491804, 39.582975916638638 ], [ 2.416821628337172, 39.582867244431149 ], [ 2.416623743959621, 39.582758572795996 ], [ 2.416549007578763, 39.582715938060929 ], [ 2.416508126216454, 39.582692616699781 ], [ 2.416477786229377, 39.582675308615165 ], [ 2.416406109517973, 39.582634419142309 ], [ 2.416303317310396, 39.582604001056971 ], [ 2.41624746608077, 39.58258747390925 ], [ 2.416110293275159, 39.582533537981938 ], [ 2.416031378677688, 39.582502508892723 ], [ 2.415970068279713, 39.582478401689649 ], [ 2.415921636522483, 39.582440436373432 ], [ 2.415831820557553, 39.582370028421238 ], [ 2.41581091615542, 39.582320426695702 ], [ 2.415773347625217, 39.582231290206352 ], [ 2.415652500853916, 39.582068565386017 ], [ 2.41563574780958, 39.58204600658636 ], [ 2.415618052788947, 39.582029820583152 ], [ 2.41553711317344, 39.581955782612198 ], [ 2.41551738096157, 39.581937732915044 ], [ 2.415439675708948, 39.581721984410251 ], [ 2.41543990855185, 39.581694269698552 ], [ 2.415442518762341, 39.58138358020274 ], [ 2.415444069497145, 39.581198996244972 ], [ 2.415444844859195, 39.581106704263867 ], [ 2.41538624332936, 39.58098334767881 ], [ 2.415148867904058, 39.58084370983596 ], [ 2.414990618541885, 39.580750617374981 ], [ 2.414910219799832, 39.580598524873487 ], [ 2.414892779579579, 39.58056553300306 ], [ 2.414894073039818, 39.580411712731724 ], [ 2.41487535929151, 39.580273174214042 ], [ 2.414816759451041, 39.580149818237778 ], [ 2.414837930836421, 39.579996098056469 ], [ 2.414837979783823, 39.579990277605525 ], [ 2.414838023874357, 39.579985034694673 ], [ 2.414838836323176, 39.579888424217856 ], [ 2.414877558622195, 39.579771798882724 ], [ 2.414900022820072, 39.57970414051168 ], [ 2.41492158188325, 39.579504273851391 ], [ 2.414923263228995, 39.579304308000779 ], [ 2.414914853933926, 39.579234662364648 ], [ 2.414904679029037, 39.579150387612714 ], [ 2.414897767080031, 39.579086983787072 ], [ 2.414886224246359, 39.578981085367325 ], [ 2.414872700342504, 39.57889269312718 ], [ 2.414867380348629, 39.578857929563654 ], [ 2.414858354436193, 39.578806652956679 ], [ 2.414848408340418, 39.578750154711109 ], [ 2.414790328403746, 39.578565270397029 ], [ 2.414785849754796, 39.57845497803563 ], [ 2.414785778981095, 39.578454947944991 ], [ 2.414785712849528, 39.5784549196798 ], [ 2.414777975601216, 39.578451595533615 ], [ 2.41477776212338, 39.57845150435481 ], [ 2.414639986002196, 39.578392322304985 ], [ 2.414507665274665, 39.578335483243578 ], [ 2.414380483176517, 39.578280852239381 ], [ 2.414140381595694, 39.578177714886934 ], [ 2.414138209750517, 39.57817678217652 ], [ 2.414012437852098, 39.57812275526657 ], [ 2.413951831707394, 39.578096721422348 ], [ 2.413910318028881, 39.5780564123015 ], [ 2.413421675903189, 39.577586971716045 ], [ 2.413385344181807, 39.5775625522216 ], [ 2.413384784965163, 39.577562176369277 ], [ 2.413308820708186, 39.577511120348426 ], [ 2.413308471047065, 39.577510886115519 ], [ 2.413232129465392, 39.577459575848934 ], [ 2.413150558238947, 39.577404751207396 ], [ 2.41294093368607, 39.577277335460408 ], [ 2.412929171434074, 39.57727346555243 ], [ 2.412853206461384, 39.577289915830846 ], [ 2.412792561475654, 39.577322161165903 ], [ 2.412630046315665, 39.577408569239275 ], [ 2.412618808749484, 39.577414544881115 ], [ 2.41258900497171, 39.577430656146866 ], [ 2.412543277933673, 39.577469743546807 ], [ 2.412516944805895, 39.577469610421915 ], [ 2.412484915043142, 39.577486925906143 ], [ 2.412484682252446, 39.57751449916654 ], [ 2.412434378343783, 39.577514244828748 ], [ 2.41242643025874, 39.577518541332417 ], [ 2.412374499221828, 39.577546615455844 ], [ 2.412367945413773, 39.57755015762968 ], [ 2.412367871080475, 39.577558960385808 ], [ 2.412351811776136, 39.577558879175768 ], [ 2.412321704919195, 39.577575154630431 ], [ 2.412309412308943, 39.577592445535927 ], [ 2.41230936989162, 39.577592504789877 ], [ 2.412309275211693, 39.577603715915004 ], [ 2.412301427768805, 39.577603676227703 ], [ 2.412281745654776, 39.577631362866249 ], [ 2.412279958090727, 39.577633876729251 ], [ 2.412278805653257, 39.577635498173606 ], [ 2.412278116313894, 39.577636467807189 ], [ 2.412275737212117, 39.577639813939697 ], [ 2.412250451998797, 39.577675379735297 ], [ 2.412250298773903, 39.577693521340926 ], [ 2.412237600803332, 39.577693457116041 ], [ 2.412208485869469, 39.577734410654685 ], [ 2.412191533964783, 39.577758254648629 ], [ 2.41219132218282, 39.577783326734384 ], [ 2.412173772507847, 39.577783237960816 ], [ 2.41215958265306, 39.577803198035525 ], [ 2.412149891662733, 39.577808436297282 ], [ 2.412132813983876, 39.577817668429915 ], [ 2.412132726010876, 39.577828082170591 ], [ 2.41211372791974, 39.577827986060605 ], [ 2.412074328754249, 39.577849284574938 ], [ 2.412074129763564, 39.577872837576336 ], [ 2.412031160774488, 39.577872620173103 ], [ 2.41201875136167, 39.577879328677255 ], [ 2.412015843479278, 39.577880899788937 ], [ 2.412008052060246, 39.577885112358786 ], [ 2.411957358143737, 39.57791251587394 ], [ 2.411957317730035, 39.577917298373755 ], [ 2.411948592359365, 39.577917254219905 ], [ 2.411898872755238, 39.577944131928938 ], [ 2.411898721295168, 39.577962053688957 ], [ 2.411866025003017, 39.577961888212819 ], [ 2.411840387321396, 39.577975747052932 ], [ 2.41181822951386, 39.577987725016094 ], [ 2.411783457541121, 39.57800652214592 ], [ 2.41172341627961, 39.578038979012916 ], [ 2.411723312378858, 39.578051269532082 ], [ 2.411646824699406, 39.578080382247201 ], [ 2.41163157047566, 39.578088627891816 ], [ 2.411606445033609, 39.578102209951886 ], [ 2.41156536935845, 39.578124414355578 ], [ 2.411547953971141, 39.578134459228707 ], [ 2.411547903014633, 39.578140485105742 ], [ 2.411516607672255, 39.578152538378923 ], [ 2.411507272811731, 39.578157922555981 ], [ 2.411460776347925, 39.578184739810219 ], [ 2.411430709168572, 39.578229995282655 ], [ 2.411382733390862, 39.578229752280116 ], [ 2.411372442558339, 39.578235687543675 ], [ 2.411313938638379, 39.578269430555508 ], [ 2.411313896129586, 39.578274455423028 ], [ 2.411305301118995, 39.578274411881175 ], [ 2.411296650722244, 39.578279401250235 ], [ 2.411255434669467, 39.578303172636289 ], [ 2.411255298981314, 39.578319210405724 ], [ 2.41122786991233, 39.57831907143543 ], [ 2.411196930636356, 39.578336915587975 ], [ 2.411196701757675, 39.578363965357966 ], [ 2.411150437442239, 39.578363730931137 ], [ 2.411138426546669, 39.578370658509606 ], [ 2.411082365537666, 39.578402991946561 ], [ 2.411079922400404, 39.578404401401166 ], [ 2.411079888346139, 39.578408425259283 ], [ 2.411073006037374, 39.578408390380041 ], [ 2.411061369554942, 39.578415101797049 ], [ 2.411021418197564, 39.57843814426262 ], [ 2.41102129093494, 39.578453180120988 ], [ 2.410987307840307, 39.57845300787497 ], [ 2.410963002629715, 39.578461409385845 ], [ 2.410951279188511, 39.578465461391119 ], [ 2.41090461312444, 39.578481591263454 ], [ 2.410904477263046, 39.578497639843356 ], [ 2.410858850910551, 39.578497408534332 ], [ 2.410846223585587, 39.578501773111398 ], [ 2.410787834013155, 39.578521954929691 ], [ 2.410787663442988, 39.578542099446842 ], [ 2.410730393818278, 39.57854180905013 ], [ 2.410671054759931, 39.578562319378271 ], [ 2.410670849474764, 39.578586558931441 ], [ 2.410612633218352, 39.57858626367581 ], [ 2.410601936563489, 39.578586209422362 ], [ 2.41060026544615, 39.578586787521324 ], [ 2.410594686678907, 39.578588603647788 ], [ 2.410562808971938, 39.57859898498824 ], [ 2.41055587928518, 39.578601242075713 ], [ 2.410545874155777, 39.578604499932091 ], [ 2.410518517365432, 39.57861340937265 ], [ 2.410517981444019, 39.578613583257265 ], [ 2.410495903355545, 39.578620773260596 ], [ 2.410495819065996, 39.578630722982723 ], [ 2.410465817882213, 39.578630570784007 ], [ 2.410437523491839, 39.578639785405407 ], [ 2.410379143604166, 39.578658796619571 ], [ 2.410379004765477, 39.57867518217077 ], [ 2.410329597732604, 39.578674931470545 ], [ 2.410320763677258, 39.578677808705145 ], [ 2.410262383726385, 39.578696819860077 ], [ 2.410262190316796, 39.578719641239928 ], [ 2.410205304779386, 39.578719352533312 ], [ 2.410203969294973, 39.578719895387572 ], [ 2.410145549272686, 39.57874362591091 ], [ 2.41014537571995, 39.578764100190206 ], [ 2.410095767197278, 39.578763848367664 ], [ 2.410087129203181, 39.578767357305445 ], [ 2.410028709094092, 39.578791088670243 ], [ 2.410028560974943, 39.578808559021624 ], [ 2.40994683091441, 39.578824348295818 ], [ 2.409916660388399, 39.578836604173823 ], [ 2.40991530737345, 39.578837154144011 ], [ 2.409909798353209, 39.57883939137573 ], [ 2.409884502397362, 39.578849667191513 ], [ 2.409852765486007, 39.57894282189298 ], [ 2.409827990852639, 39.578942696072211 ], [ 2.409797204353036, 39.578994207862969 ], [ 2.409794066055811, 39.578999458483374 ], [ 2.409793784736931, 39.579032626019391 ], [ 2.409774303126987, 39.579032527070332 ], [ 2.409774135415028, 39.579032806440921 ], [ 2.409758293881141, 39.579059312868992 ], [ 2.409745835159531, 39.579065194626857 ], [ 2.409735246950378, 39.579070192056264 ], [ 2.409735185975971, 39.579077380217655 ], [ 2.409720180050322, 39.579077303993742 ], [ 2.409676793715203, 39.579097784016163 ], [ 2.409676587139642, 39.579122134385486 ], [ 2.409625755815359, 39.579121876149799 ], [ 2.409622512827945, 39.579123406753929 ], [ 2.409618340426257, 39.579125376847159 ], [ 2.409559887098828, 39.579152968747266 ], [ 2.409559771497077, 39.579166592736165 ], [ 2.409531331460029, 39.579166448227845 ], [ 2.409498468960408, 39.579181961080579 ], [ 2.409489240477485, 39.579184654237743 ], [ 2.40944306538207, 39.579198127955785 ], [ 2.409442955706348, 39.579211050967928 ], [ 2.409399535313531, 39.579210830295587 ], [ 2.409384701559907, 39.579215159170751 ], [ 2.409326337709488, 39.579232190356151 ], [ 2.409326139767456, 39.579255509080852 ], [ 2.409247789266929, 39.579255110795025 ], [ 2.40921734197801, 39.579263996106612 ], [ 2.409177271642082, 39.579275688770146 ], [ 2.40915127146464, 39.579280283412231 ], [ 2.409151106842491, 39.579299671082637 ], [ 2.40909289000544, 39.579299375061254 ], [ 2.409044623590831, 39.57929912961373 ], [ 2.408987495688672, 39.579309225327108 ], [ 2.408918044030022, 39.579321498304608 ], [ 2.408917856826132, 39.579343536709445 ], [ 2.408712804052182, 39.579364161643888 ], [ 2.408646237055504, 39.579374585792827 ], [ 2.40847168594033, 39.579413349307771 ], [ 2.408440275461455, 39.579420325621619 ], [ 2.408387922336186, 39.579431950978552 ], [ 2.408337876699598, 39.579443065459294 ], [ 2.408331880323809, 39.579442490702114 ], [ 2.408307574873644, 39.579440161207948 ], [ 2.408075197367566, 39.579417888087534 ], [ 2.407880369686938, 39.579410337762475 ], [ 2.407859604997526, 39.579409533650818 ], [ 2.407840518809084, 39.579408793953114 ], [ 2.407773986616843, 39.579406215820704 ], [ 2.407708772085029, 39.579403688517054 ], [ 2.407693004477239, 39.579403077438343 ], [ 2.40762748149432, 39.579400537704451 ], [ 2.40756532015842, 39.579398128602648 ], [ 2.407506265547807, 39.579395840729248 ], [ 2.407450093028944, 39.5793936630321 ], [ 2.407396594223151, 39.579391589947569 ], [ 2.407372405046115, 39.579390652952426 ], [ 2.407366850421767, 39.579390437208843 ], [ 2.407360991721811, 39.579387643850524 ], [ 2.407346241766144, 39.579380610820557 ], [ 2.407345617911336, 39.579380580607726 ], [ 2.407287401025588, 39.579380283681338 ], [ 2.407287636274805, 39.579352665405771 ], [ 2.407250683158118, 39.579335044561468 ], [ 2.407229567907736, 39.579334936852497 ], [ 2.407229652413121, 39.579325016870357 ], [ 2.40722411147837, 39.579322374698137 ], [ 2.407219813716257, 39.579320325442175 ], [ 2.407217835309654, 39.579319381876026 ], [ 2.407216697669973, 39.579318839054849 ], [ 2.407215958950265, 39.579318487486354 ], [ 2.407171668597742, 39.5792973683062 ], [ 2.407155180333707, 39.579289505539471 ], [ 2.407113518057463, 39.579289292982168 ], [ 2.407113684828666, 39.579269719713359 ], [ 2.407059677634899, 39.579243966439542 ], [ 2.407055685128896, 39.579243946067486 ], [ 2.406939635545865, 39.579198302024778 ], [ 2.406939733806944, 39.579186772861476 ], [ 2.406939450845845, 39.579186638063952 ], [ 2.406937458528636, 39.579185688114741 ], [ 2.406935978789266, 39.579184982259342 ], [ 2.406928519777876, 39.579181425643121 ], [ 2.40692406663448, 39.579179302599201 ], [ 2.406881750223086, 39.57915912415374 ], [ 2.406868672614149, 39.579152888005972 ], [ 2.406823586116158, 39.579152657866942 ], [ 2.406823766685532, 39.579131475417299 ], [ 2.406773170292196, 39.579107348672302 ], [ 2.406765753490793, 39.579107310809192 ], [ 2.406649704328328, 39.579061666478978 ], [ 2.406649816350695, 39.57904852903561 ], [ 2.406637846272101, 39.579042820217204 ], [ 2.406591833006041, 39.579020879283306 ], [ 2.406582166025133, 39.579016269771266 ], [ 2.406533655319189, 39.579016022033663 ], [ 2.406533849700008, 39.578993230403249 ], [ 2.40650772475178, 39.578980773500057 ], [ 2.406475802508835, 39.578973076891891 ], [ 2.406465626953262, 39.578970622755364 ], [ 2.406359389930589, 39.57897008008451 ], [ 2.406359603376858, 39.578945060288078 ], [ 2.406301503850295, 39.578931051492354 ], [ 2.406274728107644, 39.578924595720096 ], [ 2.406185124774999, 39.578924137875376 ], [ 2.406185304852958, 39.578903035616101 ], [ 2.406127205397562, 39.578889026733606 ], [ 2.406083830682447, 39.578878568378705 ], [ 2.406010859852421, 39.578878195406269 ], [ 2.406011006550244, 39.578861009782933 ], [ 2.406003968385662, 39.578859313196119 ], [ 2.406003495457569, 39.57885919905015 ], [ 2.405892932349032, 39.578832540719254 ], [ 2.405836595162857, 39.578832252677174 ] ] ] ] } }
]
}
