{
"type": "FeatureCollection",
"name": "points",
"crs": { "type": "name", "properties": { "name": "urn:ogc:def:crs:OGC:1.3:CRS84" } },
"features": [
{ "type": "Feature", "properties": { "PlotID": "MANFV01", "Fire_94": "0", "Fire_13": "M", "Fires": "1x", "description": "trees" }, "geometry": { "type": "Point", "coordinates": [ 2.412765986220809, 39.5993660303063 ] } },
{ "type": "Feature", "properties": { "PlotID": "MANFV02", "Fire_94": "0", "Fire_13": "H", "Fires": "1x", "description": "regen" }, "geometry": { "type": "Point", "coordinates": [ 2.410122884205389, 39.596523395424541 ] } },
{ "type": "Feature", "properties": { "PlotID": "MANFV03", "Fire_94": "0", "Fire_13": "M", "Fires": "1x", "description": "trees" }, "geometry": { "type": "Point", "coordinates": [ 2.407477288911612, 39.595365620958027 ] } },
{ "type": "Feature", "properties": { "PlotID": "MANFV04", "Fire_94": "1", "Fire_13": "M", "Fires": "2x", "description": "trees" }, "geometry": { "type": "Point", "coordinates": [ 2.405123363078105, 39.590073531110093 ] } },
{ "type": "Feature", "properties": { "PlotID": "MANFV05", "Fire_94": "0", "Fire_13": "M", "Fires": "1x", "description": "trees" }, "geometry": { "type": "Point", "coordinates": [ 2.408506283782597, 39.590775587567101 ] } },
{ "type": "Feature", "properties": { "PlotID": "MANFV06", "Fire_94": "0", "Fire_13": "0", "Fires": "0x", "description": "trees" }, "geometry": { "type": "Point", "coordinates": [ 2.415520679714422, 39.583413579611729 ] } },
{ "type": "Feature", "properties": { "PlotID": "MANFV07", "Fire_94": "0", "Fire_13": "0", "Fires": "0x", "description": "trees" }, "geometry": { "type": "Point", "coordinates": [ 2.408770187890273, 39.583019014962112 ] } },
{ "type": "Feature", "properties": { "PlotID": "MANFV08", "Fire_94": "0", "Fire_13": "0", "Fires": "0x", "description": "trees" }, "geometry": { "type": "Point", "coordinates": [ 2.420225241560596, 39.601556961462101 ] } },
{ "type": "Feature", "properties": { "PlotID": "MANFV09", "Fire_94": "0", "Fire_13": "H", "Fires": "1x", "description": "regen" }, "geometry": { "type": "Point", "coordinates": [ 2.4128617534308, 39.600438744305059 ] } },
{ "type": "Feature", "properties": { "PlotID": "MANFV10", "Fire_94": "0", "Fire_13": "H", "Fires": "1x", "description": "regen" }, "geometry": { "type": "Point", "coordinates": [ 2.412859214453259, 39.595221744908905 ] } },
{ "type": "Feature", "properties": { "PlotID": "MANFV11", "Fire_94": "1", "Fire_13": "H", "Fires": "2x", "description": "shrub" }, "geometry": { "type": "Point", "coordinates": [ 2.407351666200924, 39.597806782339816 ] } },
{ "type": "Feature", "properties": { "PlotID": "MANFV12", "Fire_94": "1", "Fire_13": "M", "Fires": "2x", "description": "trees" }, "geometry": { "type": "Point", "coordinates": [ 2.401964995033334, 39.587642544874527 ] } },
{ "type": "Feature", "properties": { "PlotID": "MANFV13", "Fire_94": "1", "Fire_13": "H", "Fires": "2x", "description": "shrub" }, "geometry": { "type": "Point", "coordinates": [ 2.403816325033801, 39.590391204812668 ] } },
{ "type": "Feature", "properties": { "PlotID": "MANFV14", "Fire_94": "1", "Fire_13": "H", "Fires": "2x", "description": "shrub" }, "geometry": { "type": "Point", "coordinates": [ 2.410742841990816, 39.594832596826826 ] } },
{ "type": "Feature", "properties": { "PlotID": "MANFV15", "Fire_94": "0", "Fire_13": "M", "Fires": "1x", "description": "trees" }, "geometry": { "type": "Point", "coordinates": [ 2.410631381322602, 39.592867776318748 ] } },
{ "type": "Feature", "properties": { "PlotID": "MANFV16", "Fire_94": "1", "Fire_13": "0", "Fires": "0x", "description": "trees" }, "geometry": { "type": "Point", "coordinates": [ 2.405592478381723, 39.584237222653606 ] } },
{ "type": "Feature", "properties": { "PlotID": "MANFV17", "Fire_94": "1", "Fire_13": "H", "Fires": "2x", "description": "shrub" }, "geometry": { "type": "Point", "coordinates": [ 2.403095618385929, 39.601091788306093 ] } },
{ "type": "Feature", "properties": { "PlotID": "MANFV18", "Fire_94": "1", "Fire_13": "H", "Fires": "2x", "description": "shrub" }, "geometry": { "type": "Point", "coordinates": [ 2.402759596873234, 39.59953127400869 ] } },
{ "type": "Feature", "properties": { "PlotID": "MANFV19", "Fire_94": "1", "Fire_13": "M", "Fires": "2x", "description": "trees" }, "geometry": { "type": "Point", "coordinates": [ 2.402660540478231, 39.600215550115756 ] } },
{ "type": "Feature", "properties": { "PlotID": "MANFV20", "Fire_94": "0", "Fire_13": "M", "Fires": "1x", "description": "trees" }, "geometry": { "type": "Point", "coordinates": [ 2.414838065531967, 39.591195091985441 ] } },
{ "type": "Feature", "properties": { "PlotID": "MANFV21", "Fire_94": "1", "Fire_13": "0", "Fires": "0x", "description": "trees" }, "geometry": { "type": "Point", "coordinates": [ 2.404529772912822, 39.584592195987931 ] } },
{ "type": "Feature", "properties": { "PlotID": "MANFV22", "Fire_94": "1", "Fire_13": "0", "Fires": "0x", "description": "trees" }, "geometry": { "type": "Point", "coordinates": [ 2.405989583194714, 39.582734523276748 ] } },
{ "type": "Feature", "properties": { "PlotID": "MANFV23", "Fire_94": "0", "Fire_13": "H", "Fires": "1x", "description": "trees" }, "geometry": { "type": "Point", "coordinates": [ 2.413874014747787, 39.595037651214469 ] } },
{ "type": "Feature", "properties": { "PlotID": "MANFV24", "Fire_94": "1", "Fire_13": "M", "Fires": "2x", "description": "trees" }, "geometry": { "type": "Point", "coordinates": [ 2.400093476980032, 39.594003212548678 ] } },
{ "type": "Feature", "properties": { "PlotID": "MANFV25", "Fire_94": "1", "Fire_13": "H", "Fires": "2x", "description": "shrub" }, "geometry": { "type": "Point", "coordinates": [ 2.400393166816798, 39.593013621811075 ] } },
{ "type": "Feature", "properties": { "PlotID": "MANFV26", "Fire_94": "1", "Fire_13": "M", "Fires": "2x", "description": "trees" }, "geometry": { "type": "Point", "coordinates": [ 2.400881666534904, 39.594439775686816 ] } },
{ "type": "Feature", "properties": { "PlotID": "MANFV27", "Fire_94": "1", "Fire_13": "H", "Fires": "2x", "description": "regen" }, "geometry": { "type": "Point", "coordinates": [ 2.407821081521703, 39.601494402793222 ] } },
{ "type": "Feature", "properties": { "PlotID": "MANFV28", "Fire_94": "0", "Fire_13": "H", "Fires": "1x", "description": "shrub" }, "geometry": { "type": "Point", "coordinates": [ 2.401966269391811, 39.602392478760869 ] } },
{ "type": "Feature", "properties": { "PlotID": "MANFV29", "Fire_94": "0", "Fire_13": "H", "Fires": "1x", "description": "regen" }, "geometry": { "type": "Point", "coordinates": [ 2.410173086180228, 39.604335610434759 ] } }
]
}
